Name,Country,Region,Type,Last Known Eruption,Latitude,Longitude,Dominant Rock Type,Tectonic Setting
Larderello,Italy,Mediterranean and Western Asia,Explosion crater,1282,43.25,10.87,No Data,Subduction Zone / Continental Crust (>25 km)
Vulsini,Italy,Mediterranean and Western Asia,Caldera,-104,42.6,11.93,Trachyte / Trachydacite,Subduction Zone / Continental Crust (>25 km)
Campi Flegrei,Italy,Mediterranean and Western Asia,Caldera,1538,40.827,14.139000000000001,Trachyte / Trachydacite,Subduction Zone / Continental Crust (>25 km)
Vesuvius,Italy,Mediterranean and Western Asia,Stratovolcano,1944,40.821,14.425999999999998,Phono-tephrite /  Tephri-phonolite,Subduction Zone / Continental Crust (>25 km)
Ischia,Italy,Mediterranean and Western Asia,Complex,1302,40.73,13.897,Trachyte / Trachydacite,Subduction Zone / Continental Crust (>25 km)
Stromboli,Italy,Mediterranean and Western Asia,Stratovolcano,2016,38.789,15.213,Trachyandesite / Basaltic Trachyandesite,Subduction Zone / Continental Crust (>25 km)
Lipari,Italy,Mediterranean and Western Asia,Stratovolcano,1230,38.49,14.933,Rhyolite,Subduction Zone / Continental Crust (>25 km)
Vulcano,Italy,Mediterranean and Western Asia,Stratovolcano,1890,38.404,14.962,Trachybasalt / Tephrite Basanite,Subduction Zone / Continental Crust (>25 km)
Etna,Italy,Mediterranean and Western Asia,Stratovolcano,2016,37.734,15.004000000000001,Trachybasalt / Tephrite Basanite,Subduction Zone / Continental Crust (>25 km)
Campi Flegrei Mar Sicilia,Italy,Mediterranean and Western Asia,Submarine,1867,37.1,12.7,Trachybasalt / Tephrite Basanite,Rift Zone / Continental Crust (>25 km)
Pantelleria,Italy,Mediterranean and Western Asia,Shield,1891,36.77,12.02,Rhyolite,Rift Zone / Continental Crust (>25 km)
Methana,Greece,Mediterranean and Western Asia,Lava dome,-258,37.615,23.336,Andesite / Basaltic Andesite,Subduction Zone / Continental Crust (>25 km)
Milos,Greece,Mediterranean and Western Asia,Stratovolcano,140,36.699,24.439,Rhyolite,Subduction Zone / Continental Crust (>25 km)
Santorini,Greece,Mediterranean and Western Asia,Shield,1950,36.404,25.396,Dacite,Subduction Zone / Continental Crust (>25 km)
Nisyros,Greece,Mediterranean and Western Asia,Stratovolcano,1888,36.586,27.16,Dacite,Subduction Zone / Continental Crust (>25 km)
Nemrut Dagi,Turkey,Mediterranean and Western Asia,Stratovolcano,1650,38.654,42.229,Rhyolite,Intraplate / Continental Crust (>25 km)
Tenduruk Dagi,Turkey,Mediterranean and Western Asia,Shield,1855,39.356,43.873999999999995,Basalt / Picro-Basalt,Intraplate / Continental Crust (>25 km)
Ararat,Turkey,Mediterranean and Western Asia,Stratovolcano,1840,39.7,44.3,Andesite / Basaltic Andesite,Intraplate / Continental Crust (>25 km)
Elbrus,Russia,Mediterranean and Western Asia,Stratovolcano,50,43.351000000000006,42.442,Dacite,Intraplate / Continental Crust (>25 km)
Kazbek,Georgia,Mediterranean and Western Asia,Stratovolcano,-750,42.7,44.5,Andesite / Basaltic Andesite,Intraplate / Continental Crust (>25 km)
Porak,Armenia-Azerbaijan,Mediterranean and Western Asia,Stratovolcano,-778,40.028,45.74,Andesite / Basaltic Andesite,Intraplate / Continental Crust (>25 km)
"Tair, Jebel at",Yemen,Africa and Red Sea,Stratovolcano,2008,15.55,41.83,Trachybasalt / Tephrite Basanite,Rift Zone / Oceanic Crust (< 15 km)
Zubair Group,Yemen,Africa and Red Sea,Shield,2013,15.05,42.18,Basalt / Picro-Basalt,Rift Zone / Oceanic Crust (< 15 km)
Dallol,Ethiopia,Africa and Red Sea,Explosion crater,2011,14.242,40.3,No Data,Rift Zone / Intermediate Crust (15-25 km)
Alu-Dalafilla,Ethiopia,Africa and Red Sea,Fissure vent,2008,13.793,40.553000000000004,Basalt / Picro-Basalt,Rift Zone / Intermediate Crust (15-25 km)
Erta Ale,Ethiopia,Africa and Red Sea,Shield,2016,13.6,40.67,Basalt / Picro-Basalt,Rift Zone / Intermediate Crust (15-25 km)
Dubbi,Eritrea,Africa and Red Sea,Stratovolcano,1861,13.579,41.809,Basalt / Picro-Basalt,Rift Zone / Intermediate Crust (15-25 km)
Nabro,Eritrea,Africa and Red Sea,Stratovolcano,2012,13.37,41.7,Trachyte / Trachydacite,Rift Zone / Intermediate Crust (15-25 km)
Alayta,Ethiopia,Africa and Red Sea,Shield,1915,12.888,40.573,Basalt / Picro-Basalt,Rift Zone / Intermediate Crust (15-25 km)
Dabbahu,Ethiopia,Africa and Red Sea,Stratovolcano,2005,12.595,40.48,Basalt / Picro-Basalt,Rift Zone / Intermediate Crust (15-25 km)
Manda Hararo,Ethiopia,Africa and Red Sea,Shield,2009,12.17,40.82,Basalt / Picro-Basalt,Rift Zone / Intermediate Crust (15-25 km)
Manda-Inakir,Ethiopia-Djibouti,Africa and Red Sea,Fissure vent,1928,12.38,42.2,Basalt / Picro-Basalt,Rift Zone / Intermediate Crust (15-25 km)
Ardoukoba,Djibouti,Africa and Red Sea,Fissure vent,1978,11.58,42.47,Basalt / Picro-Basalt,Rift Zone / Intermediate Crust (15-25 km)
Dama Ali,Ethiopia,Africa and Red Sea,Shield,1631,11.28,41.63,Basalt / Picro-Basalt,Rift Zone / Intermediate Crust (15-25 km)
Fentale,Ethiopia,Africa and Red Sea,Stratovolcano,1820,8.975,39.93,Rhyolite,Rift Zone / Continental Crust (>25 km)
Kone,Ethiopia,Africa and Red Sea,Caldera,1820,8.8,39.692,Rhyolite,Rift Zone / Continental Crust (>25 km)
Tullu Moje,Ethiopia,Africa and Red Sea,Pyroclastic cone,1900,8.158999999999999,39.137,Rhyolite,Rift Zone / Continental Crust (>25 km)
Alutu,Ethiopia,Africa and Red Sea,Stratovolcano,-50,7.77,38.78,Rhyolite,Rift Zone / Continental Crust (>25 km)
South Island,Kenya,Africa and Red Sea,Stratovolcano,1888,2.63,36.6,Basalt / Picro-Basalt,Rift Zone / Continental Crust (>25 km)
"Barrier, The",Kenya,Africa and Red Sea,Shield,1921,2.32,36.57,Trachyte / Trachydacite,Rift Zone / Continental Crust (>25 km)
Emuruangogolak,Kenya,Africa and Red Sea,Shield,1910,1.5,36.33,Trachyte / Trachydacite,Rift Zone / Continental Crust (>25 km)
Olkaria,Kenya,Africa and Red Sea,Pyroclastic cone,1770,-0.904,36.292,Rhyolite,Rift Zone / Continental Crust (>25 km)
Longonot,Kenya,Africa and Red Sea,Stratovolcano,1863,-0.914,36.446,Trachyte / Trachydacite,Rift Zone / Continental Crust (>25 km)
"Lengai, Ol Doinyo",Tanzania,Africa and Red Sea,Stratovolcano,2013,-2.764,35.914,Foidite,Rift Zone / Continental Crust (>25 km)
Chyulu Hills,Kenya,Africa and Red Sea,Volcanic field,1855,-2.68,37.88,Trachybasalt / Tephrite Basanite,Rift Zone / Continental Crust (>25 km)
Meru,Tanzania,Africa and Red Sea,Stratovolcano,1910,-3.25,36.75,Phonolite,Rift Zone / Continental Crust (>25 km)
Ngozi,Tanzania,Africa and Red Sea,Caldera,1450,-8.988999999999999,33.554,Trachyte / Trachydacite,Rift Zone / Continental Crust (>25 km)
Rungwe,Tanzania,Africa and Red Sea,Stratovolcano,1250,-9.135,33.668,Trachyte / Trachydacite,Rift Zone / Continental Crust (>25 km)
Kyejo,Tanzania,Africa and Red Sea,Stratovolcano,1800,-9.229,33.792,Trachyte / Trachydacite,Rift Zone / Continental Crust (>25 km)
Nyamuragira,DR Congo,Africa and Red Sea,Shield,2015,-1.4080000000000001,29.2,Trachybasalt / Tephrite Basanite,Rift Zone / Continental Crust (>25 km)
Nyiragongo,DR Congo,Africa and Red Sea,Stratovolcano,2016,-1.52,29.25,Foidite,Rift Zone / Continental Crust (>25 km)
Visoke,DR Congo-Rwanda,Africa and Red Sea,Stratovolcano,1957,-1.4580000000000002,29.485,Trachyandesite / Basaltic Trachyandesite,Rift Zone / Continental Crust (>25 km)
Santa Isabel,Equatorial Guinea,Africa and Red Sea,Shield,1923,3.58,8.75,Basalt / Picro-Basalt,Intraplate / Continental Crust (>25 km)
Cameroon,Cameroon,Africa and Red Sea,Stratovolcano,2000,4.203,9.17,Trachybasalt / Tephrite Basanite,Intraplate / Continental Crust (>25 km)
Bayuda Volcanic Field,Sudan,Africa and Red Sea,Pyroclastic cone,850,18.33,32.75,Trachybasalt / Tephrite Basanite,Intraplate / Continental Crust (>25 km)
Unnamed,Syria,Middle East and Indian Ocean,Volcanic field,1222,36.67,37.0,Basalt / Picro-Basalt,Rift Zone / Continental Crust (>25 km)
Harrat Ash Shamah,Syria-Jordan-Saudi Arabia,Middle East and Indian Ocean,Volcanic field,1850,32.333,37.583,Basalt / Picro-Basalt,Intraplate / Continental Crust (>25 km)
"Uwayrid, Harrat",Saudi Arabia,Middle East and Indian Ocean,Volcanic field,640,27.08,37.25,Basalt / Picro-Basalt,Intraplate / Continental Crust (>25 km)
"Lunayyir, Harrat",Saudi Arabia,Middle East and Indian Ocean,Volcanic field,1000,25.17,37.75,Basalt / Picro-Basalt,Intraplate / Continental Crust (>25 km)
"Khaybar, Harrat",Saudi Arabia,Middle East and Indian Ocean,Volcanic field,650,25.0,39.92,Basalt / Picro-Basalt,Intraplate / Continental Crust (>25 km)
"Rahat, Harrat",Saudi Arabia,Middle East and Indian Ocean,Volcanic field,1256,23.08,39.78,Basalt / Picro-Basalt,Intraplate / Continental Crust (>25 km)
"Yar, Jabal",Saudi Arabia,Middle East and Indian Ocean,Volcanic field,1810,17.05,42.83,Basalt / Picro-Basalt,Intraplate / Continental Crust (>25 km)
"Arhab, Harra of",Yemen,Middle East and Indian Ocean,Volcanic field,500,15.63,44.08,Trachybasalt / Tephrite Basanite,Intraplate / Continental Crust (>25 km)
"Dhamar, Harras of",Yemen,Middle East and Indian Ocean,Volcanic field,1937,14.57,44.67,Basalt / Picro-Basalt,Intraplate / Continental Crust (>25 km)
"Sawad, Harra Es-",Yemen,Middle East and Indian Ocean,Volcanic field,1253,13.58,46.12,Trachybasalt / Tephrite Basanite,Intraplate / Continental Crust (>25 km)
Karthala,Comoros,Middle East and Indian Ocean,Shield,2007,-11.75,43.38,Basalt / Picro-Basalt,Intraplate / Oceanic Crust (< 15 km)
"Fournaise, Piton de la",France,Middle East and Indian Ocean,Shield,2016,-21.244,55.708,Basalt / Picro-Basalt,Intraplate / Oceanic Crust (< 15 km)
Boomerang Seamount,France,Middle East and Indian Ocean,Submarine,1995,-37.721,77.825,Basalt / Picro-Basalt,Rift Zone / Oceanic Crust (< 15 km)
St. Paul,France,Middle East and Indian Ocean,Stratovolcano,1793,-38.72,77.53,Basalt / Picro-Basalt,Rift Zone / Oceanic Crust (< 15 km)
Heard,Australia,Middle East and Indian Ocean,Stratovolcano,2016,-53.106,73.513,Trachybasalt / Tephrite Basanite,Intraplate / Oceanic Crust (< 15 km)
McDonald Islands,Australia,Middle East and Indian Ocean,Complex,2005,-53.03,72.6,Phonolite,Intraplate / Oceanic Crust (< 15 km)
Marion Island,South Africa,Middle East and Indian Ocean,Shield,2004,-46.9,37.75,Basalt / Picro-Basalt,Rift Zone / Oceanic Crust (< 15 km)
Kaikohe-Bay of Islands,New Zealand,New Zealand to Fiji,Volcanic field,400,-35.3,173.9,Trachybasalt / Tephrite Basanite,Subduction Zone / Continental Crust (>25 km)
Auckland Field,New Zealand,New Zealand to Fiji,Volcanic field,1350,-36.9,174.87,Trachybasalt / Tephrite Basanite,Subduction Zone / Continental Crust (>25 km)
Taranaki [Egmont],New Zealand,New Zealand to Fiji,Stratovolcano,1854,-39.3,174.07,Andesite / Basaltic Andesite,Subduction Zone / Continental Crust (>25 km)
White Island,New Zealand,New Zealand to Fiji,Stratovolcano,2016,-37.52,177.18,Andesite / Basaltic Andesite,Subduction Zone / Continental Crust (>25 km)
Okataina,New Zealand,New Zealand to Fiji,Lava dome,1981,-38.12,176.5,Rhyolite,Subduction Zone / Continental Crust (>25 km)
Reporoa,New Zealand,New Zealand to Fiji,Caldera,1180,-38.42,176.33,Rhyolite,Subduction Zone / Continental Crust (>25 km)
Maroa,New Zealand,New Zealand to Fiji,Caldera,180,-38.42,176.08,Rhyolite,Subduction Zone / Continental Crust (>25 km)
Taupo,New Zealand,New Zealand to Fiji,Caldera,260,-38.82,176.0,Rhyolite,Subduction Zone / Continental Crust (>25 km)
Tongariro,New Zealand,New Zealand to Fiji,Stratovolcano,2012,-39.157,175.632,Andesite / Basaltic Andesite,Subduction Zone / Continental Crust (>25 km)
Ruapehu,New Zealand,New Zealand to Fiji,Stratovolcano,2007,-39.28,175.57,Andesite / Basaltic Andesite,Subduction Zone / Continental Crust (>25 km)
Rumble III,New Zealand,New Zealand to Fiji,Submarine,2008,-35.745,178.47799999999998,Andesite / Basaltic Andesite,Subduction Zone / Oceanic Crust (< 15 km)
Healy,New Zealand,New Zealand to Fiji,Submarine,1360,-35.004,178.97299999999998,Dacite,Subduction Zone / Oceanic Crust (< 15 km)
Havre Seamount,New Zealand,New Zealand to Fiji,Submarine,2012,-31.08,-179.033,No Data,Subduction Zone / Oceanic Crust (< 15 km)
Raoul Island,New Zealand,New Zealand to Fiji,Stratovolcano,2006,-29.27,-177.92,Andesite / Basaltic Andesite,Subduction Zone / Oceanic Crust (< 15 km)
Monowai,New Zealand,New Zealand to Fiji,Submarine,2012,-25.886999999999997,-177.188,Basalt / Picro-Basalt,Subduction Zone / Oceanic Crust (< 15 km)
Unnamed,Tonga,New Zealand to Fiji,Submarine,1932,-21.38,-175.65,No Data,Subduction Zone / Oceanic Crust (< 15 km)
Unnamed,Tonga,New Zealand to Fiji,Submarine,1999,-20.85,-175.53,No Data,Subduction Zone / Oceanic Crust (< 15 km)
Hunga Tonga-Hunga Ha'apai,Tonga,New Zealand to Fiji,Submarine,2015,-20.535999999999998,-175.382,Andesite / Basaltic Andesite,Subduction Zone / Oceanic Crust (< 15 km)
Falcon Island,Tonga,New Zealand to Fiji,Submarine,1936,-20.32,-175.42,Andesite / Basaltic Andesite,Subduction Zone / Oceanic Crust (< 15 km)
Tofua,Tonga,New Zealand to Fiji,Caldera,2014,-19.75,-175.07,Andesite / Basaltic Andesite,Subduction Zone / Oceanic Crust (< 15 km)
Metis Shoal,Tonga,New Zealand to Fiji,Submarine,1995,-19.18,-174.87,Dacite,Subduction Zone / Oceanic Crust (< 15 km)
Home Reef,Tonga,New Zealand to Fiji,Submarine,2006,-18.992,-174.775,Dacite,Subduction Zone / Oceanic Crust (< 15 km)
Late,Tonga,New Zealand to Fiji,Stratovolcano,1854,-18.805999999999997,-174.65,Andesite / Basaltic Andesite,Subduction Zone / Oceanic Crust (< 15 km)
Unnamed,Tonga,New Zealand to Fiji,Submarine,2001,-18.325,-174.365,Dacite,Subduction Zone / Oceanic Crust (< 15 km)
Fonualei,Tonga,New Zealand to Fiji,Stratovolcano,1957,-18.02,-174.325,Dacite,Subduction Zone / Oceanic Crust (< 15 km)
Curacoa,Tonga,New Zealand to Fiji,Submarine,1979,-15.62,-173.67,Dacite,Subduction Zone / Oceanic Crust (< 15 km)
Niuafo'ou,Tonga,New Zealand to Fiji,Shield,1985,-15.6,-175.63,Basalt / Picro-Basalt,Subduction Zone / Oceanic Crust (< 15 km)
Tafu-Maka,Tonga,New Zealand to Fiji,Submarine,2008,-15.37,-174.23,Basalt / Picro-Basalt,Rift Zone / Oceanic Crust (< 15 km)
West Mata,Tonga,New Zealand to Fiji,Submarine,2009,-15.1,-173.75,Andesite / Basaltic Andesite,Subduction Zone / Oceanic Crust (< 15 km)
Vailulu'u,United States,New Zealand to Fiji,Submarine,2003,-14.215,-169.058,Basalt / Picro-Basalt,Subduction Zone / Oceanic Crust (< 15 km)
Ofu-Olosega,United States,New Zealand to Fiji,Shield,1866,-14.175,-169.618,Basalt / Picro-Basalt,Subduction Zone / Oceanic Crust (< 15 km)
Savai'i,Samoa,New Zealand to Fiji,Shield,1911,-13.612,-172.525,Basalt / Picro-Basalt,Subduction Zone / Oceanic Crust (< 15 km)
Taveuni,Fiji,New Zealand to Fiji,Shield,1550,-16.82,-179.97,Basalt / Picro-Basalt,Subduction Zone / Crust Thickness Unknown
Nabukelevu,Fiji,New Zealand to Fiji,Lava dome,1660,-19.12,177.98,Andesite / Basaltic Andesite,Subduction Zone / Crust Thickness Unknown
St. Andrew Strait,Papua New Guinea,Melanesia and Australia,Complex,1957,-2.38,147.35,Rhyolite,Subduction Zone / Oceanic Crust (< 15 km)
Unnamed,Papua New Guinea,Melanesia and Australia,Submarine,1972,-3.03,147.78,No Data,Rift Zone / Continental Crust (>25 km)
Bam,Papua New Guinea,Melanesia and Australia,Stratovolcano,1960,-3.613,144.81799999999998,Andesite / Basaltic Andesite,Subduction Zone / Continental Crust (>25 km)
Manam,Papua New Guinea,Melanesia and Australia,Stratovolcano,2016,-4.08,145.037,Basalt / Picro-Basalt,Subduction Zone / Continental Crust (>25 km)
Karkar,Papua New Guinea,Melanesia and Australia,Stratovolcano,2014,-4.649,145.964,Andesite / Basaltic Andesite,Subduction Zone / Continental Crust (>25 km)
Long Island,Papua New Guinea,Melanesia and Australia,Complex,1993,-5.358,147.12,Andesite / Basaltic Andesite,Subduction Zone / Continental Crust (>25 km)
Ritter Island,Papua New Guinea,Melanesia and Australia,Stratovolcano,2007,-5.519,148.115,Basalt / Picro-Basalt,Subduction Zone / Continental Crust (>25 km)
Langila,Papua New Guinea,Melanesia and Australia,Complex,2016,-5.525,148.42,Basalt / Picro-Basalt,Subduction Zone / Continental Crust (>25 km)
Dakataua,Papua New Guinea,Melanesia and Australia,Caldera,1895,-5.093999999999999,150.094,Andesite / Basaltic Andesite,Subduction Zone / Continental Crust (>25 km)
Krummel-Garbuna-Welcker,Papua New Guinea,Melanesia and Australia,Stratovolcano,2008,-5.416,150.02700000000002,Andesite / Basaltic Andesite,Subduction Zone / Continental Crust (>25 km)
Witori,Papua New Guinea,Melanesia and Australia,Caldera,2012,-5.5760000000000005,150.516,Dacite,Subduction Zone / Continental Crust (>25 km)
Hargy,Papua New Guinea,Melanesia and Australia,Stratovolcano,950,-5.33,151.1,Dacite,Subduction Zone / Continental Crust (>25 km)
Bamus,Papua New Guinea,Melanesia and Australia,Stratovolcano,1886,-5.2,151.23,Andesite / Basaltic Andesite,Subduction Zone / Continental Crust (>25 km)
Ulawun,Papua New Guinea,Melanesia and Australia,Stratovolcano,2016,-5.05,151.33,Basalt / Picro-Basalt,Subduction Zone / Continental Crust (>25 km)
Lolobau,Papua New Guinea,Melanesia and Australia,Caldera,1912,-4.92,151.158,Basalt / Picro-Basalt,Subduction Zone / Continental Crust (>25 km)
Rabaul,Papua New Guinea,Melanesia and Australia,Pyroclastic shield,2014,-4.271,152.203,Dacite,Subduction Zone / Continental Crust (>25 km)
Lamington,Papua New Guinea,Melanesia and Australia,Stratovolcano,1956,-8.95,148.15,Andesite / Basaltic Andesite,Subduction Zone / Continental Crust (>25 km)
Victory,Papua New Guinea,Melanesia and Australia,Stratovolcano,1935,-9.2,149.07,Andesite / Basaltic Andesite,Subduction Zone / Continental Crust (>25 km)
Waiowa,Papua New Guinea,Melanesia and Australia,Pyroclastic cone,1944,-9.57,149.075,Trachyandesite / Basaltic Trachyandesite,Subduction Zone / Continental Crust (>25 km)
Dawson Strait Group,Papua New Guinea,Melanesia and Australia,Volcanic field,1350,-9.62,150.88,Rhyolite,Subduction Zone / Continental Crust (>25 km)
Ambitle,Papua New Guinea,Melanesia and Australia,Stratovolcano,-350,-4.08,153.65,Phono-tephrite /  Tephri-phonolite,Subduction Zone / Crust Thickness Unknown
Billy Mitchell,Papua New Guinea,Melanesia and Australia,Pyroclastic shield,1580,-6.0920000000000005,155.225,Andesite / Basaltic Andesite,Subduction Zone / Crust Thickness Unknown
Bagana,Papua New Guinea,Melanesia and Australia,Lava cone,2016,-6.1370000000000005,155.196,Andesite / Basaltic Andesite,Subduction Zone / Crust Thickness Unknown
Simbo,Solomon Islands,Melanesia and Australia,Stratovolcano,1910,-8.292,156.52,Andesite / Basaltic Andesite,Subduction Zone / Crust Thickness Unknown
Kavachi,Solomon Islands,Melanesia and Australia,Submarine,2007,-9.02,157.95,Andesite / Basaltic Andesite,Subduction Zone / Crust Thickness Unknown
Savo,Solomon Islands,Melanesia and Australia,Stratovolcano,1847,-9.13,159.82,Andesite / Basaltic Andesite,Subduction Zone / Crust Thickness Unknown
Tinakula,Solomon Islands,Melanesia and Australia,Stratovolcano,2012,-10.38,165.8,Andesite / Basaltic Andesite,Subduction Zone / Crust Thickness Unknown
Suretamatai,Vanuatu,Melanesia and Australia,Complex,1966,-13.8,167.47,Andesite / Basaltic Andesite,Subduction Zone / Intermediate Crust (15-25 km)
Gaua,Vanuatu,Melanesia and Australia,Stratovolcano,2011,-14.27,167.5,Andesite / Basaltic Andesite,Subduction Zone / Intermediate Crust (15-25 km)
Aoba,Vanuatu,Melanesia and Australia,Shield,2011,-15.4,167.83,Basalt / Picro-Basalt,Subduction Zone / Intermediate Crust (15-25 km)
Ambrym,Vanuatu,Melanesia and Australia,Pyroclastic shield,2016,-16.25,168.12,Basalt / Picro-Basalt,Subduction Zone / Intermediate Crust (15-25 km)
Lopevi,Vanuatu,Melanesia and Australia,Stratovolcano,2007,-16.507,168.34599999999998,Basalt / Picro-Basalt,Subduction Zone / Intermediate Crust (15-25 km)
Epi,Vanuatu,Melanesia and Australia,Stratovolcano,2004,-16.68,168.37,Basalt / Picro-Basalt,Subduction Zone / Intermediate Crust (15-25 km)
Kuwae,Vanuatu,Melanesia and Australia,Caldera,1974,-16.829,168.53599999999997,Basalt / Picro-Basalt,Subduction Zone / Intermediate Crust (15-25 km)
Traitor's Head,Vanuatu,Melanesia and Australia,Stratovolcano,1881,-18.754,169.238,Basalt / Picro-Basalt,Subduction Zone / Intermediate Crust (15-25 km)
Yasur,Vanuatu,Melanesia and Australia,Stratovolcano,2016,-19.53,169.442,Andesite / Basaltic Andesite,Subduction Zone / Intermediate Crust (15-25 km)
Eastern Gemini Seamount,France,Melanesia and Australia,Submarine,1996,-20.98,170.28,Basalt / Picro-Basalt,Rift Zone / Oceanic Crust (< 15 km)
Matthew Island,France,Melanesia and Australia,Stratovolcano,1956,-22.33,171.32,Andesite / Basaltic Andesite,Subduction Zone / Crust Thickness Unknown
Hunter Island,France,Melanesia and Australia,Stratovolcano,1903,-22.4,172.05,Andesite / Basaltic Andesite,Subduction Zone / Crust Thickness Unknown
Barren Island,India,Indonesia,Stratovolcano,2016,12.277999999999999,93.85799999999999,Basalt / Picro-Basalt,Subduction Zone / Continental Crust (>25 km)
Seulawah Agam,Indonesia,Indonesia,Stratovolcano,1839,5.4479999999999995,95.65799999999999,Andesite / Basaltic Andesite,Subduction Zone / Continental Crust (>25 km)
Peuet Sague,Indonesia,Indonesia,Complex,2000,4.914,96.329,Andesite / Basaltic Andesite,Subduction Zone / Continental Crust (>25 km)
"Telong, Bur ni",Indonesia,Indonesia,Stratovolcano,1937,4.769,96.821,Andesite / Basaltic Andesite,Subduction Zone / Continental Crust (>25 km)
Singkut,Indonesia,Indonesia,Caldera,1881,3.248,98.501,Andesite / Basaltic Andesite,Subduction Zone / Continental Crust (>25 km)
Sinabung,Indonesia,Indonesia,Stratovolcano,2016,3.17,98.39200000000001,Andesite / Basaltic Andesite,Subduction Zone / Continental Crust (>25 km)
Sorikmarapi,Indonesia,Indonesia,Stratovolcano,1986,0.6859999999999999,99.539,Andesite / Basaltic Andesite,Subduction Zone / Continental Crust (>25 km)
Marapi,Indonesia,Indonesia,Complex,2015,-0.381,100.473,Andesite / Basaltic Andesite,Subduction Zone / Continental Crust (>25 km)
Tandikat-Singgalang,Indonesia,Indonesia,Stratovolcano,1924,-0.39,100.331,Andesite / Basaltic Andesite,Subduction Zone / Continental Crust (>25 km)
Talang,Indonesia,Indonesia,Stratovolcano,2007,-0.978,100.679,Andesite / Basaltic Andesite,Subduction Zone / Continental Crust (>25 km)
Kerinci,Indonesia,Indonesia,Stratovolcano,2016,-1.6969999999999998,101.264,Andesite / Basaltic Andesite,Subduction Zone / Continental Crust (>25 km)
Sumbing,Indonesia,Indonesia,Stratovolcano,1921,-2.414,101.728,Andesite / Basaltic Andesite,Subduction Zone / Continental Crust (>25 km)
Kaba,Indonesia,Indonesia,Stratovolcano,2000,-3.52,102.62,Andesite / Basaltic Andesite,Subduction Zone / Continental Crust (>25 km)
Dempo,Indonesia,Indonesia,Stratovolcano,2009,-4.03,103.13,Andesite / Basaltic Andesite,Subduction Zone / Continental Crust (>25 km)
Besar,Indonesia,Indonesia,Stratovolcano,1940,-4.43,103.67,Andesite / Basaltic Andesite,Subduction Zone / Continental Crust (>25 km)
Suoh,Indonesia,Indonesia,Caldera,1933,-5.25,104.27,No Data,Subduction Zone / Continental Crust (>25 km)
Krakatau,Indonesia,Indonesia,Caldera,2014,-6.102,105.42299999999999,Andesite / Basaltic Andesite,Subduction Zone / Continental Crust (>25 km)
Perbakti-Gagak,Indonesia,Indonesia,Stratovolcano,1939,-6.75,106.7,Andesite / Basaltic Andesite,Subduction Zone / Continental Crust (>25 km)
Salak,Indonesia,Indonesia,Stratovolcano,1938,-6.72,106.73,Andesite / Basaltic Andesite,Subduction Zone / Continental Crust (>25 km)
Gede-Pangrango,Indonesia,Indonesia,Stratovolcano,1957,-6.77,106.965,Andesite / Basaltic Andesite,Subduction Zone / Continental Crust (>25 km)
Tangkubanparahu,Indonesia,Indonesia,Stratovolcano,2013,-6.77,107.6,Andesite / Basaltic Andesite,Subduction Zone / Continental Crust (>25 km)
Papandayan,Indonesia,Indonesia,Stratovolcano,2002,-7.32,107.73,Andesite / Basaltic Andesite,Subduction Zone / Continental Crust (>25 km)
Guntur,Indonesia,Indonesia,Complex,1847,-7.143,107.84,Andesite / Basaltic Andesite,Subduction Zone / Continental Crust (>25 km)
Galunggung,Indonesia,Indonesia,Stratovolcano,1984,-7.25,108.05799999999999,Basalt / Picro-Basalt,Subduction Zone / Continental Crust (>25 km)
Cereme,Indonesia,Indonesia,Stratovolcano,1951,-6.892,108.4,Andesite / Basaltic Andesite,Subduction Zone / Continental Crust (>25 km)
Slamet,Indonesia,Indonesia,Stratovolcano,2014,-7.242000000000001,109.208,Basalt / Picro-Basalt,Subduction Zone / Continental Crust (>25 km)
Dieng Volcanic Complex,Indonesia,Indonesia,Complex,2009,-7.2,109.92,Andesite / Basaltic Andesite,Subduction Zone / Continental Crust (>25 km)
Sundoro,Indonesia,Indonesia,Stratovolcano,1971,-7.3,109.992,Andesite / Basaltic Andesite,Subduction Zone / Continental Crust (>25 km)
Sumbing,Indonesia,Indonesia,Stratovolcano,1730,-7.3839999999999995,110.07,Andesite / Basaltic Andesite,Subduction Zone / Continental Crust (>25 km)
Merbabu,Indonesia,Indonesia,Stratovolcano,1797,-7.45,110.43,Basalt / Picro-Basalt,Subduction Zone / Continental Crust (>25 km)
Merapi,Indonesia,Indonesia,Stratovolcano,2014,-7.542000000000001,110.44200000000001,Andesite / Basaltic Andesite,Subduction Zone / Continental Crust (>25 km)
Muria,Indonesia,Indonesia,Stratovolcano,-160,-6.62,110.88,Trachybasalt / Tephrite Basanite,Subduction Zone / Continental Crust (>25 km)
Lawu,Indonesia,Indonesia,Stratovolcano,1885,-7.625,111.19200000000001,Andesite / Basaltic Andesite,Subduction Zone / Continental Crust (>25 km)
Kelut,Indonesia,Indonesia,Stratovolcano,2014,-7.93,112.30799999999999,Andesite / Basaltic Andesite,Subduction Zone / Continental Crust (>25 km)
Arjuno-Welirang,Indonesia,Indonesia,Stratovolcano,1952,-7.725,112.58,Andesite / Basaltic Andesite,Subduction Zone / Continental Crust (>25 km)
Semeru,Indonesia,Indonesia,Stratovolcano,2016,-8.107999999999999,112.92,Andesite / Basaltic Andesite,Subduction Zone / Continental Crust (>25 km)
Tengger Caldera,Indonesia,Indonesia,Stratovolcano,2016,-7.942,112.95,Trachyandesite / Basaltic Trachyandesite,Subduction Zone / Continental Crust (>25 km)
Lamongan,Indonesia,Indonesia,Stratovolcano,1898,-7.979,113.34200000000001,Basalt / Picro-Basalt,Subduction Zone / Continental Crust (>25 km)
Raung,Indonesia,Indonesia,Stratovolcano,2015,-8.119,114.056,Andesite / Basaltic Andesite,Subduction Zone / Continental Crust (>25 km)
Ijen,Indonesia,Indonesia,Stratovolcano,1999,-8.058,114.242,Andesite / Basaltic Andesite,Subduction Zone / Continental Crust (>25 km)
Batur,Indonesia,Indonesia,Caldera,2000,-8.242,115.375,Andesite / Basaltic Andesite,Subduction Zone / Continental Crust (>25 km)
Agung,Indonesia,Indonesia,Stratovolcano,1964,-8.342,115.508,Andesite / Basaltic Andesite,Subduction Zone / Continental Crust (>25 km)
Rinjani,Indonesia,Indonesia,Stratovolcano,2016,-8.42,116.47,Andesite / Basaltic Andesite,Subduction Zone / Continental Crust (>25 km)
Tambora,Indonesia,Indonesia,Stratovolcano,1967,-8.25,118.0,Trachybasalt / Tephrite Basanite,Subduction Zone / Continental Crust (>25 km)
Sangeang Api,Indonesia,Indonesia,Complex,2015,-8.2,119.07,Trachybasalt / Tephrite Basanite,Subduction Zone / Continental Crust (>25 km)
Ranakah,Indonesia,Indonesia,Lava dome,1991,-8.62,120.52,Andesite / Basaltic Andesite,Subduction Zone / Continental Crust (>25 km)
Inielika,Indonesia,Indonesia,Complex,2001,-8.73,120.98,Andesite / Basaltic Andesite,Subduction Zone / Crust Thickness Unknown
Ebulobo,Indonesia,Indonesia,Stratovolcano,1969,-8.82,121.18,Andesite / Basaltic Andesite,Subduction Zone / Crust Thickness Unknown
Iya,Indonesia,Indonesia,Stratovolcano,1969,-8.897,121.645,Basalt / Picro-Basalt,Subduction Zone / Crust Thickness Unknown
Kelimutu,Indonesia,Indonesia,Complex,1968,-8.77,121.82,Andesite / Basaltic Andesite,Subduction Zone / Crust Thickness Unknown
Paluweh,Indonesia,Indonesia,Stratovolcano,2014,-8.32,121.708,Andesite / Basaltic Andesite,Subduction Zone / Crust Thickness Unknown
Egon,Indonesia,Indonesia,Stratovolcano,2008,-8.676,122.455,Andesite / Basaltic Andesite,Subduction Zone / Crust Thickness Unknown
Lewotobi,Indonesia,Indonesia,Stratovolcano,2003,-8.542,122.775,Andesite / Basaltic Andesite,Subduction Zone / Crust Thickness Unknown
Leroboleng,Indonesia,Indonesia,Complex,2003,-8.365,122.833,Andesite / Basaltic Andesite,Subduction Zone / Crust Thickness Unknown
Iliboleng,Indonesia,Indonesia,Stratovolcano,1993,-8.342,123.258,Basalt / Picro-Basalt,Subduction Zone / Crust Thickness Unknown
Lewotolo,Indonesia,Indonesia,Stratovolcano,2012,-8.272,123.505,Andesite / Basaltic Andesite,Subduction Zone / Crust Thickness Unknown
Iliwerung,Indonesia,Indonesia,Complex,2013,-8.53,123.57,Basalt / Picro-Basalt,Subduction Zone / Crust Thickness Unknown
"Tara, Batu",Indonesia,Indonesia,Stratovolcano,2015,-7.791,123.585,Trachybasalt / Tephrite Basanite,Subduction Zone / Oceanic Crust (< 15 km)
Sirung,Indonesia,Indonesia,Complex,2015,-8.508,124.13,Andesite / Basaltic Andesite,Subduction Zone / Crust Thickness Unknown
Gunungapi Wetar,Indonesia,Indonesia,Stratovolcano,1699,-6.642,126.65,Andesite / Basaltic Andesite,Subduction Zone / Oceanic Crust (< 15 km)
Wurlali,Indonesia,Indonesia,Stratovolcano,1892,-7.125,128.675,Andesite / Basaltic Andesite,Subduction Zone / Oceanic Crust (< 15 km)
Teon,Indonesia,Indonesia,Stratovolcano,1904,-6.976,129.144,Andesite / Basaltic Andesite,Subduction Zone / Oceanic Crust (< 15 km)
Nila,Indonesia,Indonesia,Stratovolcano,1968,-6.73,129.5,Andesite / Basaltic Andesite,Subduction Zone / Oceanic Crust (< 15 km)
Serua,Indonesia,Indonesia,Stratovolcano,1921,-6.312,130.017,Andesite / Basaltic Andesite,Subduction Zone / Oceanic Crust (< 15 km)
Banda Api,Indonesia,Indonesia,Caldera,1988,-4.523,129.881,Dacite,Subduction Zone / Oceanic Crust (< 15 km)
Colo,Indonesia,Indonesia,Stratovolcano,1983,-0.162,121.601,Trachyandesite / Basaltic Trachyandesite,Subduction Zone / Continental Crust (>25 km)
Ambang,Indonesia,Indonesia,Complex,2005,0.75,124.42,Andesite / Basaltic Andesite,Subduction Zone / Continental Crust (>25 km)
Soputan,Indonesia,Indonesia,Stratovolcano,2016,1.112,124.73700000000001,Andesite / Basaltic Andesite,Subduction Zone / Continental Crust (>25 km)
Lokon-Empung,Indonesia,Indonesia,Stratovolcano,2015,1.358,124.792,Basalt / Picro-Basalt,Subduction Zone / Continental Crust (>25 km)
Mahawu,Indonesia,Indonesia,Stratovolcano,1977,1.3519999999999999,124.865,Andesite / Basaltic Andesite,Subduction Zone / Continental Crust (>25 km)
Tangkoko-Duasudara,Indonesia,Indonesia,Stratovolcano,1880,1.518,125.185,Andesite / Basaltic Andesite,Subduction Zone / Continental Crust (>25 km)
Ruang,Indonesia,Indonesia,Stratovolcano,2002,2.3,125.37,Andesite / Basaltic Andesite,Subduction Zone / Oceanic Crust (< 15 km)
Karangetang,Indonesia,Indonesia,Stratovolcano,2016,2.78,125.4,Andesite / Basaltic Andesite,Subduction Zone / Oceanic Crust (< 15 km)
Banua Wuhu,Indonesia,Indonesia,Submarine,1919,3.138,125.491,Andesite / Basaltic Andesite,Subduction Zone / Oceanic Crust (< 15 km)
Awu,Indonesia,Indonesia,Stratovolcano,2004,3.67,125.5,Andesite / Basaltic Andesite,Subduction Zone / Oceanic Crust (< 15 km)
Dukono,Indonesia,Indonesia,Complex,2016,1.693,127.89399999999999,Andesite / Basaltic Andesite,Subduction Zone / Oceanic Crust (< 15 km)
Ibu,Indonesia,Indonesia,Stratovolcano,2016,1.4880000000000002,127.63,Andesite / Basaltic Andesite,Subduction Zone / Oceanic Crust (< 15 km)
Gamkonora,Indonesia,Indonesia,Stratovolcano,2007,1.38,127.53,Andesite / Basaltic Andesite,Subduction Zone / Oceanic Crust (< 15 km)
Gamalama,Indonesia,Indonesia,Stratovolcano,2016,0.8,127.33,Andesite / Basaltic Andesite,Subduction Zone / Oceanic Crust (< 15 km)
Makian,Indonesia,Indonesia,Stratovolcano,1988,0.32,127.4,Andesite / Basaltic Andesite,Subduction Zone / Oceanic Crust (< 15 km)
Jolo,Philippines,Philippines and SE Asia,Pyroclastic cone,1897,6.013,121.057,Basalt / Picro-Basalt,Subduction Zone / Crust Thickness Unknown
Parker,Philippines,Philippines and SE Asia,Stratovolcano,1641,6.1129999999999995,124.89200000000001,Andesite / Basaltic Andesite,Subduction Zone / Continental Crust (>25 km)
Matutum,Philippines,Philippines and SE Asia,Stratovolcano,1290,6.37,125.07,Andesite / Basaltic Andesite,Subduction Zone / Continental Crust (>25 km)
Leonard Range,Philippines,Philippines and SE Asia,Stratovolcano,120,7.382000000000001,126.04700000000001,Andesite / Basaltic Andesite,Subduction Zone / Continental Crust (>25 km)
Makaturing,Philippines,Philippines and SE Asia,Stratovolcano,1882,7.647,124.32,Basalt / Picro-Basalt,Subduction Zone / Continental Crust (>25 km)
Ragang,Philippines,Philippines and SE Asia,Stratovolcano,1873,7.7,124.5,Basalt / Picro-Basalt,Subduction Zone / Continental Crust (>25 km)
Musuan,Philippines,Philippines and SE Asia,Lava dome,1886,7.877000000000001,125.068,Andesite / Basaltic Andesite,Subduction Zone / Continental Crust (>25 km)
Camiguin,Philippines,Philippines and SE Asia,Stratovolcano,1953,9.203,124.67299999999999,Andesite / Basaltic Andesite,Subduction Zone / Continental Crust (>25 km)
Kanlaon,Philippines,Philippines and SE Asia,Stratovolcano,2016,10.412,123.132,Andesite / Basaltic Andesite,Subduction Zone / Continental Crust (>25 km)
Cabalían,Philippines,Philippines and SE Asia,Stratovolcano,1820,10.285,125.21799999999999,Andesite / Basaltic Andesite,Subduction Zone / Continental Crust (>25 km)
Biliran,Philippines,Philippines and SE Asia,Compound,1939,11.523,124.535,Andesite / Basaltic Andesite,Subduction Zone / Continental Crust (>25 km)
Bulusan,Philippines,Philippines and SE Asia,Stratovolcano,2016,12.77,124.05,Andesite / Basaltic Andesite,Subduction Zone / Continental Crust (>25 km)
Mayon,Philippines,Philippines and SE Asia,Stratovolcano,2014,13.257,123.685,Andesite / Basaltic Andesite,Subduction Zone / Continental Crust (>25 km)
San Pablo Volcanic Field,Philippines,Philippines and SE Asia,Stratovolcano,1350,14.12,121.3,Trachyandesite / Basaltic Trachyandesite,Subduction Zone / Continental Crust (>25 km)
Taal,Philippines,Philippines and SE Asia,Caldera,1977,14.002,120.993,Andesite / Basaltic Andesite,Subduction Zone / Continental Crust (>25 km)
Pinatubo,Philippines,Philippines and SE Asia,Stratovolcano,1993,15.13,120.35,Dacite,Subduction Zone / Continental Crust (>25 km)
Cagua,Philippines,Philippines and SE Asia,Stratovolcano,1860,18.222,122.12299999999999,Andesite / Basaltic Andesite,Subduction Zone / Continental Crust (>25 km)
Camiguin de Babuyanes,Philippines,Philippines and SE Asia,Stratovolcano,1857,18.83,121.86,Andesite / Basaltic Andesite,Subduction Zone / Crust Thickness Unknown
Didicas,Philippines,Philippines and SE Asia,Compound,1978,19.077,122.20200000000001,Andesite / Basaltic Andesite,Subduction Zone / Crust Thickness Unknown
Babuyan Claro,Philippines,Philippines and SE Asia,Stratovolcano,1924,19.523,121.94,Andesite / Basaltic Andesite,Subduction Zone / Crust Thickness Unknown
Unnamed,Philippines,Philippines and SE Asia,Submarine,1854,20.33,121.75,No Data,Subduction Zone / Crust Thickness Unknown
Iraya,Philippines,Philippines and SE Asia,Stratovolcano,1454,20.469,122.01,Andesite / Basaltic Andesite,Subduction Zone / Crust Thickness Unknown
Hainan Dao,China,Philippines and SE Asia,Pyroclastic cone,1933,19.7,110.1,Basalt / Picro-Basalt,Intraplate / Continental Crust (>25 km)
"Cendres, Ile des",Vietnam,Philippines and SE Asia,Submarine,1923,10.158,109.014,Basalt / Picro-Basalt,Intraplate / Continental Crust (>25 km)
Popa,Burma (Myanmar),Philippines and SE Asia,Stratovolcano,-442,20.92,95.25,Basalt / Picro-Basalt,Intraplate / Continental Crust (>25 km)
Unnamed,Taiwan,"Japan, Taiwan, Marianas",Submarine,1853,24.0,121.83,No Data,Subduction Zone / Continental Crust (>25 km)
Kueishantao,Taiwan,"Japan, Taiwan, Marianas",Stratovolcano,1785,24.840999999999998,121.95299999999999,Andesite / Basaltic Andesite,Subduction Zone / Continental Crust (>25 km)
Tatun Group,Taiwan,"Japan, Taiwan, Marianas",Lava dome,648,25.17,121.52,Andesite / Basaltic Andesite,Subduction Zone / Continental Crust (>25 km)
Submarine Volcano NNE of Iriomotejima,Japan,"Japan, Taiwan, Marianas",Submarine,1924,24.57,123.93,Rhyolite,Subduction Zone / Oceanic Crust (< 15 km)
Io-Torishima,Japan,"Japan, Taiwan, Marianas",Complex,1968,27.881,128.22299999999998,Andesite / Basaltic Andesite,Subduction Zone / Oceanic Crust (< 15 km)
Yokoate-jima,Japan,"Japan, Taiwan, Marianas",Stratovolcano,1835,28.796999999999997,128.997,Andesite / Basaltic Andesite,Subduction Zone / Oceanic Crust (< 15 km)
Suwanosejima,Japan,"Japan, Taiwan, Marianas",Stratovolcano,2016,29.638,129.714,Andesite / Basaltic Andesite,Subduction Zone / Oceanic Crust (< 15 km)
Nakanoshima,Japan,"Japan, Taiwan, Marianas",Stratovolcano,1914,29.859,129.857,Andesite / Basaltic Andesite,Subduction Zone / Oceanic Crust (< 15 km)
Kuchinoshima,Japan,"Japan, Taiwan, Marianas",Stratovolcano,1190,29.968000000000004,129.92600000000002,Andesite / Basaltic Andesite,Subduction Zone / Oceanic Crust (< 15 km)
Kuchinoerabujima,Japan,"Japan, Taiwan, Marianas",Stratovolcano,2015,30.443,130.217,Andesite / Basaltic Andesite,Subduction Zone / Oceanic Crust (< 15 km)
Kikai,Japan,"Japan, Taiwan, Marianas",Caldera,2013,30.789,130.308,Rhyolite,Subduction Zone / Oceanic Crust (< 15 km)
Ata,Japan,"Japan, Taiwan, Marianas",Caldera,885,31.22,130.57,Andesite / Basaltic Andesite,Subduction Zone / Continental Crust (>25 km)
Aira,Japan,"Japan, Taiwan, Marianas",Caldera,2016,31.593000000000004,130.657,Andesite / Basaltic Andesite,Subduction Zone / Continental Crust (>25 km)
Kirishimayama,Japan,"Japan, Taiwan, Marianas",Shield,2011,31.934,130.862,Andesite / Basaltic Andesite,Subduction Zone / Continental Crust (>25 km)
Fukue,Japan,"Japan, Taiwan, Marianas",Shield,-400,32.657,128.849,Basalt / Picro-Basalt,Subduction Zone / Continental Crust (>25 km)
Unzendake,Japan,"Japan, Taiwan, Marianas",Complex,1996,32.760999999999996,130.299,Andesite / Basaltic Andesite,Subduction Zone / Continental Crust (>25 km)
Asosan,Japan,"Japan, Taiwan, Marianas",Caldera,2016,32.884,131.10399999999998,Andesite / Basaltic Andesite,Subduction Zone / Continental Crust (>25 km)
Kujusan,Japan,"Japan, Taiwan, Marianas",Stratovolcano,1996,33.086,131.249,Andesite / Basaltic Andesite,Subduction Zone / Continental Crust (>25 km)
Yufu-Tsurumi,Japan,"Japan, Taiwan, Marianas",Lava dome,867,33.282,131.39,Andesite / Basaltic Andesite,Subduction Zone / Continental Crust (>25 km)
Sanbesan,Japan,"Japan, Taiwan, Marianas",Stratovolcano,650,35.139,132.621,Dacite,Subduction Zone / Continental Crust (>25 km)
Izu-Tobu,Japan,"Japan, Taiwan, Marianas",Pyroclastic cone,1989,34.9,139.09799999999998,Basalt / Picro-Basalt,Subduction Zone / Continental Crust (>25 km)
Hakoneyama,Japan,"Japan, Taiwan, Marianas",Complex,2015,35.233000000000004,139.02100000000002,Andesite / Basaltic Andesite,Subduction Zone / Continental Crust (>25 km)
Fujisan,Japan,"Japan, Taiwan, Marianas",Stratovolcano,1708,35.361,138.72799999999998,Basalt / Picro-Basalt,Subduction Zone / Continental Crust (>25 km)
Yokodake,Japan,"Japan, Taiwan, Marianas",Stratovolcano,1200,36.086999999999996,138.32,Andesite / Basaltic Andesite,Subduction Zone / Continental Crust (>25 km)
Ontakesan,Japan,"Japan, Taiwan, Marianas",Complex,2014,35.893,137.48,Andesite / Basaltic Andesite,Subduction Zone / Continental Crust (>25 km)
Hakusan,Japan,"Japan, Taiwan, Marianas",Stratovolcano,1659,36.155,136.77100000000002,Andesite / Basaltic Andesite,Subduction Zone / Continental Crust (>25 km)
Norikuradake,Japan,"Japan, Taiwan, Marianas",Stratovolcano,-50,36.106,137.554,Andesite / Basaltic Andesite,Subduction Zone / Continental Crust (>25 km)
Yakedake,Japan,"Japan, Taiwan, Marianas",Stratovolcano,1995,36.227,137.58700000000002,Andesite / Basaltic Andesite,Subduction Zone / Continental Crust (>25 km)
Midagahara,Japan,"Japan, Taiwan, Marianas",Stratovolcano,1839,36.571,137.59,Andesite / Basaltic Andesite,Subduction Zone / Continental Crust (>25 km)
Niigata-Yakeyama,Japan,"Japan, Taiwan, Marianas",Lava dome,1998,36.921,138.036,Andesite / Basaltic Andesite,Subduction Zone / Continental Crust (>25 km)
Myokosan,Japan,"Japan, Taiwan, Marianas",Stratovolcano,-750,36.891,138.114,Andesite / Basaltic Andesite,Subduction Zone / Continental Crust (>25 km)
Asamayama,Japan,"Japan, Taiwan, Marianas",Complex,2015,36.406,138.523,Andesite / Basaltic Andesite,Subduction Zone / Continental Crust (>25 km)
Kusatsu-Shiranesan,Japan,"Japan, Taiwan, Marianas",Stratovolcano,1983,36.618,138.528,Andesite / Basaltic Andesite,Subduction Zone / Continental Crust (>25 km)
Harunasan,Japan,"Japan, Taiwan, Marianas",Stratovolcano,550,36.477,138.851,Andesite / Basaltic Andesite,Subduction Zone / Continental Crust (>25 km)
Hiuchigatake,Japan,"Japan, Taiwan, Marianas",Stratovolcano,1544,36.955,139.285,Andesite / Basaltic Andesite,Subduction Zone / Continental Crust (>25 km)
Nikko-Shiranesan,Japan,"Japan, Taiwan, Marianas",Shield,1952,36.799,139.376,Andesite / Basaltic Andesite,Subduction Zone / Continental Crust (>25 km)
Nasudake,Japan,"Japan, Taiwan, Marianas",Stratovolcano,1963,37.125,139.963,Andesite / Basaltic Andesite,Subduction Zone / Continental Crust (>25 km)
Bandaisan,Japan,"Japan, Taiwan, Marianas",Stratovolcano,1888,37.601,140.072,Andesite / Basaltic Andesite,Subduction Zone / Continental Crust (>25 km)
Adatarayama,Japan,"Japan, Taiwan, Marianas",Stratovolcano,1996,37.647,140.281,Andesite / Basaltic Andesite,Subduction Zone / Continental Crust (>25 km)
Azumayama,Japan,"Japan, Taiwan, Marianas",Stratovolcano,1977,37.735,140.244,Andesite / Basaltic Andesite,Subduction Zone / Continental Crust (>25 km)
Zaozan,Japan,"Japan, Taiwan, Marianas",Complex,1940,38.144,140.44,Andesite / Basaltic Andesite,Subduction Zone / Continental Crust (>25 km)
Naruko,Japan,"Japan, Taiwan, Marianas",Caldera,837,38.729,140.734,Rhyolite,Subduction Zone / Continental Crust (>25 km)
Kurikomayama,Japan,"Japan, Taiwan, Marianas",Stratovolcano,1950,38.961,140.78799999999998,Andesite / Basaltic Andesite,Subduction Zone / Continental Crust (>25 km)
Chokaisan,Japan,"Japan, Taiwan, Marianas",Stratovolcano,1974,39.099000000000004,140.049,Andesite / Basaltic Andesite,Subduction Zone / Continental Crust (>25 km)
Akita-Komagatake,Japan,"Japan, Taiwan, Marianas",Stratovolcano,1971,39.760999999999996,140.799,Basalt / Picro-Basalt,Subduction Zone / Continental Crust (>25 km)
Iwatesan,Japan,"Japan, Taiwan, Marianas",Complex,1919,39.853,141.001,Basalt / Picro-Basalt,Subduction Zone / Continental Crust (>25 km)
Akita-Yakeyama,Japan,"Japan, Taiwan, Marianas",Stratovolcano,1997,39.964,140.757,Andesite / Basaltic Andesite,Subduction Zone / Continental Crust (>25 km)
Iwakisan,Japan,"Japan, Taiwan, Marianas",Stratovolcano,1863,40.656,140.303,Andesite / Basaltic Andesite,Subduction Zone / Continental Crust (>25 km)
Towada,Japan,"Japan, Taiwan, Marianas",Caldera,915,40.51,140.88,Andesite / Basaltic Andesite,Subduction Zone / Continental Crust (>25 km)
Hakkodasan,Japan,"Japan, Taiwan, Marianas",Stratovolcano,1550,40.659,140.877,Andesite / Basaltic Andesite,Subduction Zone / Continental Crust (>25 km)
Osorezan,Japan,"Japan, Taiwan, Marianas",Stratovolcano,1787,41.276,141.124,Andesite / Basaltic Andesite,Subduction Zone / Continental Crust (>25 km)
Izu-Oshima,Japan,"Japan, Taiwan, Marianas",Stratovolcano,1990,34.724000000000004,139.394,Basalt / Picro-Basalt,Subduction Zone / Oceanic Crust (< 15 km)
Niijima,Japan,"Japan, Taiwan, Marianas",Lava dome,886,34.397,139.27,Rhyolite,Subduction Zone / Oceanic Crust (< 15 km)
Kozushima,Japan,"Japan, Taiwan, Marianas",Lava dome,838,34.219,139.153,Rhyolite,Subduction Zone / Oceanic Crust (< 15 km)
Miyakejima,Japan,"Japan, Taiwan, Marianas",Stratovolcano,2010,34.094,139.526,Basalt / Picro-Basalt,Subduction Zone / Oceanic Crust (< 15 km)
Hachijojima,Japan,"Japan, Taiwan, Marianas",Stratovolcano,1606,33.137,139.766,Basalt / Picro-Basalt,Subduction Zone / Oceanic Crust (< 15 km)
Aogashima,Japan,"Japan, Taiwan, Marianas",Stratovolcano,1785,32.458,139.759,Basalt / Picro-Basalt,Subduction Zone / Oceanic Crust (< 15 km)
Myojinsho,Japan,"Japan, Taiwan, Marianas",Submarine,1970,31.888,139.918,Dacite,Subduction Zone / Oceanic Crust (< 15 km)
Sumisujima,Japan,"Japan, Taiwan, Marianas",Submarine,1916,31.44,140.05100000000002,Dacite,Subduction Zone / Oceanic Crust (< 15 km)
Izu-Torishima,Japan,"Japan, Taiwan, Marianas",Stratovolcano,2002,30.484,140.303,Basalt / Picro-Basalt,Subduction Zone / Oceanic Crust (< 15 km)
Nishinoshima,Japan,"Japan, Taiwan, Marianas",Caldera,2015,27.247,140.874,Andesite / Basaltic Andesite,Subduction Zone / Crust Thickness Unknown
Kaitoku Seamount,Japan,"Japan, Taiwan, Marianas",Submarine,1984,26.06,140.933,Basalt / Picro-Basalt,Subduction Zone / Crust Thickness Unknown
Kita-Ioto,Japan,"Japan, Taiwan, Marianas",Stratovolcano,1945,25.424,141.284,Basalt / Picro-Basalt,Subduction Zone / Crust Thickness Unknown
Ioto,Japan,"Japan, Taiwan, Marianas",Caldera,2012,24.750999999999998,141.289,Trachyandesite / Basaltic Trachyandesite,Subduction Zone / Crust Thickness Unknown
Kita-Fukutokutai,Japan,"Japan, Taiwan, Marianas",Submarine,1954,24.416999999999998,141.417,No Data,Subduction Zone / Crust Thickness Unknown
Fukutoku-Oka-no-Ba,Japan,"Japan, Taiwan, Marianas",Submarine,2010,24.285,141.481,Trachyandesite / Basaltic Trachyandesite,Subduction Zone / Crust Thickness Unknown
Minami Hiyoshi,Japan,"Japan, Taiwan, Marianas",Submarine,1975,23.5,141.935,Trachyandesite / Basaltic Trachyandesite,Subduction Zone / Crust Thickness Unknown
Fukujin,United States,"Japan, Taiwan, Marianas",Submarine,1974,21.93,143.47,Andesite / Basaltic Andesite,Subduction Zone / Crust Thickness Unknown
Kasuga 1,United States,"Japan, Taiwan, Marianas",Submarine,1959,21.765,143.71,Andesite / Basaltic Andesite,Subduction Zone / Crust Thickness Unknown
Farallon de Pajaros,United States,"Japan, Taiwan, Marianas",Stratovolcano,1967,20.538,144.89600000000002,Andesite / Basaltic Andesite,Subduction Zone / Crust Thickness Unknown
Ahyi,United States,"Japan, Taiwan, Marianas",Submarine,2014,20.42,145.03,Andesite / Basaltic Andesite,Subduction Zone / Crust Thickness Unknown
Supply Reef,United States,"Japan, Taiwan, Marianas",Submarine,1989,20.13,145.1,Andesite / Basaltic Andesite,Subduction Zone / Crust Thickness Unknown
Asuncion,United States,"Japan, Taiwan, Marianas",Stratovolcano,1906,19.671,145.406,Andesite / Basaltic Andesite,Subduction Zone / Crust Thickness Unknown
Agrigan,United States,"Japan, Taiwan, Marianas",Stratovolcano,1917,18.77,145.67,Basalt / Picro-Basalt,Subduction Zone / Crust Thickness Unknown
Pagan,United States,"Japan, Taiwan, Marianas",Stratovolcano,2012,18.13,145.8,Basalt / Picro-Basalt,Subduction Zone / Crust Thickness Unknown
Alamagan,United States,"Japan, Taiwan, Marianas",Stratovolcano,870,17.6,145.83,Andesite / Basaltic Andesite,Subduction Zone / Crust Thickness Unknown
Guguan,United States,"Japan, Taiwan, Marianas",Stratovolcano,1883,17.307000000000002,145.845,Andesite / Basaltic Andesite,Subduction Zone / Crust Thickness Unknown
South Sarigan Seamount,United States,"Japan, Taiwan, Marianas",Submarine,2010,16.58,145.78,No Data,Subduction Zone / Crust Thickness Unknown
Anatahan,United States,"Japan, Taiwan, Marianas",Stratovolcano,2008,16.35,145.67,Andesite / Basaltic Andesite,Subduction Zone / Crust Thickness Unknown
Ruby,United States,"Japan, Taiwan, Marianas",Submarine,1995,15.62,145.57,Basalt / Picro-Basalt,Subduction Zone / Crust Thickness Unknown
NW Rota-1,United States,"Japan, Taiwan, Marianas",Submarine,2010,14.600999999999999,144.775,Basalt / Picro-Basalt,Subduction Zone / Crust Thickness Unknown
Mariana Back-Arc Segment at 15.5°N,United States,"Japan, Taiwan, Marianas",Submarine,2015,15.405999999999999,144.506,No Data,Subduction Zone / Oceanic Crust (< 15 km)
Oshima-Oshima,Japan,"Japan, Taiwan, Marianas",Stratovolcano,1790,41.51,139.36700000000002,Basalt / Picro-Basalt,Subduction Zone / Continental Crust (>25 km)
Esan,Japan,"Japan, Taiwan, Marianas",Lava dome,1874,41.805,141.166,Andesite / Basaltic Andesite,Subduction Zone / Continental Crust (>25 km)
Hokkaido-Komagatake,Japan,"Japan, Taiwan, Marianas",Stratovolcano,2000,42.063,140.67700000000002,Andesite / Basaltic Andesite,Subduction Zone / Continental Crust (>25 km)
Toya,Japan,"Japan, Taiwan, Marianas",Stratovolcano,2001,42.544,140.839,Basalt / Picro-Basalt,Subduction Zone / Continental Crust (>25 km)
Kuttara,Japan,"Japan, Taiwan, Marianas",Stratovolcano,1820,42.49100000000001,141.16,Basalt / Picro-Basalt,Subduction Zone / Continental Crust (>25 km)
Shikotsu,Japan,"Japan, Taiwan, Marianas",Caldera,1981,42.688,141.38,Andesite / Basaltic Andesite,Subduction Zone / Continental Crust (>25 km)
Tokachidake,Japan,"Japan, Taiwan, Marianas",Stratovolcano,2004,43.418,142.686,Andesite / Basaltic Andesite,Subduction Zone / Continental Crust (>25 km)
Taisetsuzan,Japan,"Japan, Taiwan, Marianas",Stratovolcano,1739,43.663999999999994,142.85399999999998,Andesite / Basaltic Andesite,Subduction Zone / Continental Crust (>25 km)
Maruyama,Japan,"Japan, Taiwan, Marianas",Stratovolcano,1898,43.453,143.036,Andesite / Basaltic Andesite,Subduction Zone / Continental Crust (>25 km)
Akan,Japan,"Japan, Taiwan, Marianas",Caldera,2008,43.38399999999999,144.013,Andesite / Basaltic Andesite,Subduction Zone / Continental Crust (>25 km)
Kussharo,Japan,"Japan, Taiwan, Marianas",Caldera,1320,43.608000000000004,144.44299999999998,Dacite,Subduction Zone / Continental Crust (>25 km)
Mashu,Japan,"Japan, Taiwan, Marianas",Caldera,1080,43.571999999999996,144.561,Andesite / Basaltic Andesite,Subduction Zone / Continental Crust (>25 km)
Rausudake,Japan,"Japan, Taiwan, Marianas",Stratovolcano,1800,44.076,145.122,Andesite / Basaltic Andesite,Subduction Zone / Continental Crust (>25 km)
Shiretoko-Iozan,Japan,"Japan, Taiwan, Marianas",Stratovolcano,1936,44.133,145.161,Andesite / Basaltic Andesite,Subduction Zone / Continental Crust (>25 km)
Tomariyama [Golovnin],Japan - administered by Russia,Kuril Islands,Caldera,1848,43.843999999999994,145.504,Andesite / Basaltic Andesite,Subduction Zone / Intermediate Crust (15-25 km)
Raususan [Mendeleev],Japan - administered by Russia,Kuril Islands,Stratovolcano,1880,43.979,145.733,Andesite / Basaltic Andesite,Subduction Zone / Intermediate Crust (15-25 km)
Chachadake [Tiatia],Japan - administered by Russia,Kuril Islands,Stratovolcano,1981,44.353,146.252,Basalt / Picro-Basalt,Subduction Zone / Intermediate Crust (15-25 km)
Etorofu-Atosanupuri [Atosanupuri],Japan - administered by Russia,Kuril Islands,Stratovolcano,1932,44.808,147.131,Andesite / Basaltic Andesite,Subduction Zone / Intermediate Crust (15-25 km)
Etorofu-Yakeyama [Grozny Group],Japan - administered by Russia,Kuril Islands,Complex,2013,45.012,147.871,Andesite / Basaltic Andesite,Subduction Zone / Intermediate Crust (15-25 km)
Sashiusudake [Baransky],Japan - administered by Russia,Kuril Islands,Stratovolcano,1951,45.1,148.019,Andesite / Basaltic Andesite,Subduction Zone / Intermediate Crust (15-25 km)
Chirippusan [Chirip],Japan - administered by Russia,Kuril Islands,Stratovolcano,1860,45.338,147.92,Basalt / Picro-Basalt,Subduction Zone / Intermediate Crust (15-25 km)
Moyorodake [Medvezhia],Japan - administered by Russia,Kuril Islands,Stratovolcano,1999,45.388999999999996,148.838,Andesite / Basaltic Andesite,Subduction Zone / Intermediate Crust (15-25 km)
Kolokol Group,Russia,Kuril Islands,Stratovolcano,1973,46.042,150.083,Andesite / Basaltic Andesite,Subduction Zone / Intermediate Crust (15-25 km)
Chirpoi,Russia,Kuril Islands,Caldera,2016,46.525,150.875,Andesite / Basaltic Andesite,Subduction Zone / Oceanic Crust (< 15 km)
Unnamed,Russia,Kuril Islands,Submarine,1972,46.47,151.28,No Data,Subduction Zone / Oceanic Crust (< 15 km)
Milna,Russia,Kuril Islands,Stratovolcano,1914,46.815,151.786,Andesite / Basaltic Andesite,Subduction Zone / Oceanic Crust (< 15 km)
Zavaritzki Caldera,Russia,Kuril Islands,Caldera,1957,46.925,151.95,Andesite / Basaltic Andesite,Subduction Zone / Oceanic Crust (< 15 km)
Prevo Peak,Russia,Kuril Islands,Stratovolcano,1825,47.02,152.12,Basalt / Picro-Basalt,Subduction Zone / Oceanic Crust (< 15 km)
Ketoi,Russia,Kuril Islands,Stratovolcano,1960,47.35,152.475,Andesite / Basaltic Andesite,Subduction Zone / Oceanic Crust (< 15 km)
Ushishur,Russia,Kuril Islands,Caldera,1884,47.52,152.8,Andesite / Basaltic Andesite,Subduction Zone / Oceanic Crust (< 15 km)
Rasshua,Russia,Kuril Islands,Stratovolcano,1957,47.77,153.02,Andesite / Basaltic Andesite,Subduction Zone / Oceanic Crust (< 15 km)
Sarychev Peak,Russia,Kuril Islands,Stratovolcano,2009,48.092,153.2,Andesite / Basaltic Andesite,Subduction Zone / Intermediate Crust (15-25 km)
Raikoke,Russia,Kuril Islands,Stratovolcano,1924,48.292,153.25,Basalt / Picro-Basalt,Subduction Zone / Intermediate Crust (15-25 km)
Chirinkotan,Russia,Kuril Islands,Stratovolcano,2016,48.98,153.48,Andesite / Basaltic Andesite,Subduction Zone / Intermediate Crust (15-25 km)
Ekarma,Russia,Kuril Islands,Stratovolcano,2010,48.958,153.93,Andesite / Basaltic Andesite,Subduction Zone / Intermediate Crust (15-25 km)
Sinarka,Russia,Kuril Islands,Stratovolcano,2014,48.875,154.175,Andesite / Basaltic Andesite,Subduction Zone / Intermediate Crust (15-25 km)
Kharimkotan,Russia,Kuril Islands,Stratovolcano,1933,49.12,154.50799999999998,Andesite / Basaltic Andesite,Subduction Zone / Intermediate Crust (15-25 km)
Tao-Rusyr Caldera,Russia,Kuril Islands,Stratovolcano,1952,49.35,154.7,Andesite / Basaltic Andesite,Subduction Zone / Intermediate Crust (15-25 km)
Nemo Peak,Russia,Kuril Islands,Caldera,1938,49.57,154.808,Andesite / Basaltic Andesite,Subduction Zone / Intermediate Crust (15-25 km)
Fuss Peak,Russia,Kuril Islands,Stratovolcano,1854,50.266999999999996,155.246,Andesite / Basaltic Andesite,Subduction Zone / Continental Crust (>25 km)
Karpinsky Group,Russia,Kuril Islands,Cone,1952,50.148,155.373,Andesite / Basaltic Andesite,Subduction Zone / Continental Crust (>25 km)
Chikurachki,Russia,Kuril Islands,Stratovolcano,2016,50.324,155.461,Basalt / Picro-Basalt,Subduction Zone / Continental Crust (>25 km)
Ebeko,Russia,Kuril Islands,Stratovolcano,2016,50.68600000000001,156.014,Andesite / Basaltic Andesite,Subduction Zone / Continental Crust (>25 km)
Alaid,Russia,Kuril Islands,Stratovolcano,2016,50.861000000000004,155.565,Basalt / Picro-Basalt,Subduction Zone / Continental Crust (>25 km)
Kambalny,Russia,Kamchatka and Mainland Asia,Stratovolcano,1350,51.306000000000004,156.875,Basalt / Picro-Basalt,Subduction Zone / Continental Crust (>25 km)
Koshelev,Russia,Kamchatka and Mainland Asia,Stratovolcano,1690,51.356,156.753,Basalt / Picro-Basalt,Subduction Zone / Continental Crust (>25 km)
Diky Greben,Russia,Kamchatka and Mainland Asia,Lava dome,350,51.452,156.97799999999998,Dacite,Subduction Zone / Continental Crust (>25 km)
Iliinsky,Russia,Kamchatka and Mainland Asia,Stratovolcano,1901,51.498000000000005,157.203,Andesite / Basaltic Andesite,Subduction Zone / Continental Crust (>25 km)
Zheltovsky,Russia,Kamchatka and Mainland Asia,Stratovolcano,1923,51.577,157.328,Basalt / Picro-Basalt,Subduction Zone / Continental Crust (>25 km)
Ksudach,Russia,Kamchatka and Mainland Asia,Stratovolcano,1907,51.843999999999994,157.572,Andesite / Basaltic Andesite,Subduction Zone / Continental Crust (>25 km)
Khodutka,Russia,Kamchatka and Mainland Asia,Stratovolcano,-300,52.062,157.711,Andesite / Basaltic Andesite,Subduction Zone / Continental Crust (>25 km)
Mutnovsky,Russia,Kamchatka and Mainland Asia,Complex,2000,52.449,158.196,Basalt / Picro-Basalt,Subduction Zone / Continental Crust (>25 km)
Gorely,Russia,Kamchatka and Mainland Asia,Caldera,2010,52.559,158.03,Basalt / Picro-Basalt,Subduction Zone / Continental Crust (>25 km)
Opala,Russia,Kamchatka and Mainland Asia,Caldera,1776,52.543,157.339,Basalt / Picro-Basalt,Subduction Zone / Continental Crust (>25 km)
Tolmachev Dol,Russia,Kamchatka and Mainland Asia,Pyroclastic cone,300,52.63,157.58,Basalt / Picro-Basalt,Subduction Zone / Continental Crust (>25 km)
Koryaksky,Russia,Kamchatka and Mainland Asia,Stratovolcano,2009,53.321000000000005,158.71200000000002,Andesite / Basaltic Andesite,Subduction Zone / Continental Crust (>25 km)
Avachinsky,Russia,Kamchatka and Mainland Asia,Stratovolcano,2001,53.256,158.836,Andesite / Basaltic Andesite,Subduction Zone / Continental Crust (>25 km)
Zhupanovsky,Russia,Kamchatka and Mainland Asia,Compound,2016,53.589,159.15,Andesite / Basaltic Andesite,Subduction Zone / Continental Crust (>25 km)
Veer,Russia,Kamchatka and Mainland Asia,Pyroclastic cone,390,53.75,158.45,Basalt / Picro-Basalt,Subduction Zone / Continental Crust (>25 km)
Kostakan,Russia,Kamchatka and Mainland Asia,Pyroclastic cone,1350,53.83,158.05,Basalt / Picro-Basalt,Subduction Zone / Continental Crust (>25 km)
Bakening,Russia,Kamchatka and Mainland Asia,Stratovolcano,-550,53.905,158.07,Andesite / Basaltic Andesite,Subduction Zone / Continental Crust (>25 km)
Zavaritsky,Russia,Kamchatka and Mainland Asia,Pyroclastic cone,-800,53.905,158.385,Basalt / Picro-Basalt,Subduction Zone / Continental Crust (>25 km)
Akademia Nauk,Russia,Kamchatka and Mainland Asia,Stratovolcano,1996,53.98,159.45,Andesite / Basaltic Andesite,Subduction Zone / Continental Crust (>25 km)
Karymsky,Russia,Kamchatka and Mainland Asia,Stratovolcano,2016,54.049,159.44299999999998,Andesite / Basaltic Andesite,Subduction Zone / Continental Crust (>25 km)
Maly Semyachik,Russia,Kamchatka and Mainland Asia,Caldera,1952,54.135,159.674,Basalt / Picro-Basalt,Subduction Zone / Continental Crust (>25 km)
Taunshits,Russia,Kamchatka and Mainland Asia,Stratovolcano,-550,54.528,159.804,Andesite / Basaltic Andesite,Subduction Zone / Continental Crust (>25 km)
Uzon,Russia,Kamchatka and Mainland Asia,Caldera,200,54.5,159.97,Andesite / Basaltic Andesite,Subduction Zone / Continental Crust (>25 km)
Kikhpinych,Russia,Kamchatka and Mainland Asia,Stratovolcano,1550,54.489,160.251,Basalt / Picro-Basalt,Subduction Zone / Continental Crust (>25 km)
Krasheninnikov,Russia,Kamchatka and Mainland Asia,Caldera,1550,54.596000000000004,160.27,Basalt / Picro-Basalt,Subduction Zone / Continental Crust (>25 km)
Kronotsky,Russia,Kamchatka and Mainland Asia,Stratovolcano,1923,54.753,160.533,Basalt / Picro-Basalt,Subduction Zone / Continental Crust (>25 km)
Gamchen,Russia,Kamchatka and Mainland Asia,Complex,-550,54.974,160.703,Basalt / Picro-Basalt,Subduction Zone / Continental Crust (>25 km)
Komarov,Russia,Kamchatka and Mainland Asia,Stratovolcano,950,55.033,160.725,Basalt / Picro-Basalt,Subduction Zone / Continental Crust (>25 km)
Vysoky,Russia,Kamchatka and Mainland Asia,Stratovolcano,-550,55.06399999999999,160.765,Andesite / Basaltic Andesite,Subduction Zone / Continental Crust (>25 km)
Kizimen,Russia,Kamchatka and Mainland Asia,Stratovolcano,2013,55.131,160.32,Andesite / Basaltic Andesite,Subduction Zone / Continental Crust (>25 km)
Tolbachik,Russia,Kamchatka and Mainland Asia,Shield,2013,55.832,160.326,Basalt / Picro-Basalt,Subduction Zone / Continental Crust (>25 km)
Bezymianny,Russia,Kamchatka and Mainland Asia,Stratovolcano,2016,55.972,160.595,Andesite / Basaltic Andesite,Subduction Zone / Continental Crust (>25 km)
Klyuchevskoy,Russia,Kamchatka and Mainland Asia,Stratovolcano,2016,56.056000000000004,160.642,Basalt / Picro-Basalt,Subduction Zone / Continental Crust (>25 km)
Ushkovsky,Russia,Kamchatka and Mainland Asia,Compound,1890,56.113,160.509,Basalt / Picro-Basalt,Subduction Zone / Continental Crust (>25 km)
Sheveluch,Russia,Kamchatka and Mainland Asia,Stratovolcano,2016,56.653,161.36,Andesite / Basaltic Andesite,Subduction Zone / Continental Crust (>25 km)
Khangar,Russia,Kamchatka and Mainland Asia,Stratovolcano,1500,54.761,157.407,Dacite,Subduction Zone / Continental Crust (>25 km)
Ichinsky,Russia,Kamchatka and Mainland Asia,Stratovolcano,1740,55.678000000000004,157.718,Basalt / Picro-Basalt,Subduction Zone / Continental Crust (>25 km)
Alney-Chashakondzha,Russia,Kamchatka and Mainland Asia,Stratovolcano,1600,56.7,159.65,Basalt / Picro-Basalt,Subduction Zone / Continental Crust (>25 km)
Terpuk,Russia,Kamchatka and Mainland Asia,Shield,-800,57.2,159.83,Basalt / Picro-Basalt,Subduction Zone / Continental Crust (>25 km)
Gorny Institute,Russia,Kamchatka and Mainland Asia,Stratovolcano,1250,57.33,160.2,Andesite / Basaltic Andesite,Subduction Zone / Continental Crust (>25 km)
Kinenin,Russia,Kamchatka and Mainland Asia,Maar,850,57.35,160.97,Basalt / Picro-Basalt,Subduction Zone / Continental Crust (>25 km)
Titila,Russia,Kamchatka and Mainland Asia,Shield,-550,57.4,160.1,Basalt / Picro-Basalt,Subduction Zone / Continental Crust (>25 km)
Udokan Plateau,Russia,Kamchatka and Mainland Asia,Pyroclastic cone,-220,56.28,117.77,Trachybasalt / Tephrite Basanite,Rift Zone / Continental Crust (>25 km)
Tianshan Volcanic Group,China,Kamchatka and Mainland Asia,Volcanic field,650,42.5,82.5,No Data,Intraplate / Continental Crust (>25 km)
Kunlun Volcanic Group,China,Kamchatka and Mainland Asia,Pyroclastic cone,1951,35.52,80.2,Trachyte / Trachydacite,Intraplate / Continental Crust (>25 km)
Wudalianchi,China,Kamchatka and Mainland Asia,Volcanic field,1776,48.72,126.12,Trachybasalt / Tephrite Basanite,Intraplate / Continental Crust (>25 km)
Jingbo,China,Kamchatka and Mainland Asia,Volcanic field,-520,44.08,128.83,Trachybasalt / Tephrite Basanite,Intraplate / Continental Crust (>25 km)
Longgang Group,China,Kamchatka and Mainland Asia,Pyroclastic cone,350,42.33,126.5,Basalt / Picro-Basalt,Intraplate / Continental Crust (>25 km)
Changbaishan,China-North Korea,Kamchatka and Mainland Asia,Stratovolcano,1903,41.98,128.08,Trachyte / Trachydacite,Intraplate / Continental Crust (>25 km)
Halla,South Korea,Kamchatka and Mainland Asia,Shield,1007,33.361,126.53,Basalt / Picro-Basalt,Intraplate / Continental Crust (>25 km)
Kiska,United States,Alaska,Stratovolcano,1990,52.103,177.602,Andesite / Basaltic Andesite,Subduction Zone / Intermediate Crust (15-25 km)
Little Sitkin,United States,Alaska,Stratovolcano,1830,51.95,178.543,Andesite / Basaltic Andesite,Subduction Zone / Intermediate Crust (15-25 km)
Semisopochnoi,United States,Alaska,Stratovolcano,1987,51.93,179.58,Basalt / Picro-Basalt,Subduction Zone / Intermediate Crust (15-25 km)
Gareloi,United States,Alaska,Stratovolcano,1989,51.79,-178.794,Basalt / Picro-Basalt,Subduction Zone / Intermediate Crust (15-25 km)
Tanaga,United States,Alaska,Stratovolcano,1914,51.885,-178.146,Basalt / Picro-Basalt,Subduction Zone / Intermediate Crust (15-25 km)
Takawangha,United States,Alaska,Stratovolcano,1550,51.873000000000005,-178.00599999999997,Basalt / Picro-Basalt,Subduction Zone / Intermediate Crust (15-25 km)
Kanaga,United States,Alaska,Stratovolcano,2012,51.923,-177.168,Andesite / Basaltic Andesite,Subduction Zone / Intermediate Crust (15-25 km)
Great Sitkin,United States,Alaska,Stratovolcano,1974,52.076,-176.13,Andesite / Basaltic Andesite,Subduction Zone / Intermediate Crust (15-25 km)
Kasatochi,United States,Alaska,Stratovolcano,2008,52.177,-175.50799999999998,Basalt / Picro-Basalt,Subduction Zone / Intermediate Crust (15-25 km)
Atka,United States,Alaska,Stratovolcano,1812,52.331,-174.139,Basalt / Picro-Basalt,Subduction Zone / Intermediate Crust (15-25 km)
Korovin,United States,Alaska,Stratovolcano,2007,52.381,-174.166,Basalt / Picro-Basalt,Subduction Zone / Continental Crust (>25 km)
Seguam,United States,Alaska,Stratovolcano,1993,52.315,-172.51,Andesite / Basaltic Andesite,Subduction Zone / Intermediate Crust (15-25 km)
Amukta,United States,Alaska,Stratovolcano,1997,52.5,-171.252,Andesite / Basaltic Andesite,Subduction Zone / Intermediate Crust (15-25 km)
Yunaska,United States,Alaska,Shield,1937,52.643,-170.62900000000002,Andesite / Basaltic Andesite,Subduction Zone / Intermediate Crust (15-25 km)
Carlisle,United States,Alaska,Stratovolcano,1828,52.894,-170.054,Andesite / Basaltic Andesite,Subduction Zone / Intermediate Crust (15-25 km)
Cleveland,United States,Alaska,Stratovolcano,2016,52.825,-169.94400000000002,Andesite / Basaltic Andesite,Subduction Zone / Intermediate Crust (15-25 km)
Kagamil,United States,Alaska,Stratovolcano,1929,52.974,-169.72,No Data,Subduction Zone / Intermediate Crust (15-25 km)
Vsevidof,United States,Alaska,Stratovolcano,1878,53.13,-168.69299999999998,Andesite / Basaltic Andesite,Subduction Zone / Intermediate Crust (15-25 km)
Okmok,United States,Alaska,Shield,2008,53.43,-168.13,Basalt / Picro-Basalt,Subduction Zone / Intermediate Crust (15-25 km)
Bogoslof,United States,Alaska,Submarine,1992,53.93,-168.03,Trachyandesite / Basaltic Trachyandesite,Subduction Zone / Intermediate Crust (15-25 km)
Makushin,United States,Alaska,Stratovolcano,1995,53.891000000000005,-166.923,Andesite / Basaltic Andesite,Subduction Zone / Intermediate Crust (15-25 km)
Akutan,United States,Alaska,Stratovolcano,1992,54.13399999999999,-165.986,Basalt / Picro-Basalt,Subduction Zone / Intermediate Crust (15-25 km)
Westdahl,United States,Alaska,Stratovolcano,1992,54.518,-164.65,Basalt / Picro-Basalt,Subduction Zone / Continental Crust (>25 km)
Fisher,United States,Alaska,Stratovolcano,1830,54.65,-164.43,Andesite / Basaltic Andesite,Subduction Zone / Continental Crust (>25 km)
Shishaldin,United States,Alaska,Stratovolcano,2015,54.756,-163.97,Basalt / Picro-Basalt,Subduction Zone / Continental Crust (>25 km)
Amak,United States,Alaska,Stratovolcano,1796,55.424,-163.149,Andesite / Basaltic Andesite,Subduction Zone / Continental Crust (>25 km)
Pavlof,United States,Alaska,Stratovolcano,2016,55.417,-161.894,Andesite / Basaltic Andesite,Subduction Zone / Continental Crust (>25 km)
Kupreanof,United States,Alaska,Stratovolcano,1987,56.011,-159.797,Andesite / Basaltic Andesite,Subduction Zone / Continental Crust (>25 km)
Veniaminof,United States,Alaska,Stratovolcano,2013,56.17,-159.38,Andesite / Basaltic Andesite,Subduction Zone / Continental Crust (>25 km)
Aniakchak,United States,Alaska,Caldera,1931,56.88,-158.17,Andesite / Basaltic Andesite,Subduction Zone / Continental Crust (>25 km)
Yantarni,United States,Alaska,Stratovolcano,-800,57.019,-157.185,Andesite / Basaltic Andesite,Subduction Zone / Continental Crust (>25 km)
Chiginagak,United States,Alaska,Stratovolcano,1998,57.135,-156.99,Andesite / Basaltic Andesite,Subduction Zone / Continental Crust (>25 km)
Ugashik-Peulik,United States,Alaska,Stratovolcano,1814,57.751000000000005,-156.368,Andesite / Basaltic Andesite,Subduction Zone / Continental Crust (>25 km)
Ukinrek Maars,United States,Alaska,Maar,1977,57.832,-156.51,Basalt / Picro-Basalt,Subduction Zone / Continental Crust (>25 km)
Martin,United States,Alaska,Stratovolcano,1953,58.172,-155.361,Dacite,Subduction Zone / Continental Crust (>25 km)
Mageik,United States,Alaska,Stratovolcano,-500,58.195,-155.253,Andesite / Basaltic Andesite,Subduction Zone / Continental Crust (>25 km)
Trident,United States,Alaska,Stratovolcano,1974,58.236000000000004,-155.1,Andesite / Basaltic Andesite,Subduction Zone / Continental Crust (>25 km)
Katmai,United States,Alaska,Stratovolcano,1912,58.28,-154.963,Andesite / Basaltic Andesite,Subduction Zone / Continental Crust (>25 km)
Novarupta,United States,Alaska,Caldera,1912,58.27,-155.157,Rhyolite,Subduction Zone / Continental Crust (>25 km)
Snowy Mountain,United States,Alaska,Stratovolcano,1710,58.336000000000006,-154.68200000000002,Andesite / Basaltic Andesite,Subduction Zone / Continental Crust (>25 km)
Fourpeaked,United States,Alaska,Stratovolcano,2006,58.77,-153.672,Andesite / Basaltic Andesite,Subduction Zone / Continental Crust (>25 km)
Augustine,United States,Alaska,Lava dome,2006,59.363,-153.43,Andesite / Basaltic Andesite,Subduction Zone / Continental Crust (>25 km)
Iliamna,United States,Alaska,Stratovolcano,1876,60.032,-153.09,Andesite / Basaltic Andesite,Subduction Zone / Continental Crust (>25 km)
Redoubt,United States,Alaska,Stratovolcano,2009,60.485,-152.74200000000002,Andesite / Basaltic Andesite,Subduction Zone / Continental Crust (>25 km)
Spurr,United States,Alaska,Stratovolcano,1992,61.299,-152.251,Andesite / Basaltic Andesite,Subduction Zone / Continental Crust (>25 km)
Hayes,United States,Alaska,Stratovolcano,1200,61.64,-152.411,Dacite,Subduction Zone / Continental Crust (>25 km)
Imuruk Lake,United States,Alaska,Shield,300,65.517,-163.45,Basalt / Picro-Basalt,Intraplate / Continental Crust (>25 km)
Wrangell,United States,Alaska,Shield,2002,62.006,-144.017,Andesite / Basaltic Andesite,Intraplate / Continental Crust (>25 km)
Churchill,United States,Alaska,Stratovolcano,847,61.38,-141.75,Dacite,Intraplate / Continental Crust (>25 km)
Edziza,Canada,Canada and Western USA,Stratovolcano,950,57.72,-130.63,Trachyte / Trachydacite,Intraplate / Continental Crust (>25 km)
Iskut-Unuk River Cones,Canada,Canada and Western USA,Pyroclastic cone,1800,56.58,-130.55,Basalt / Picro-Basalt,Intraplate / Continental Crust (>25 km)
Tseax River Cone,Canada,Canada and Western USA,Pyroclastic cone,1690,55.12,-128.9,Basalt / Picro-Basalt,Intraplate / Continental Crust (>25 km)
Wells Gray-Clearwater,Canada,Canada and Western USA,Pyroclastic cone,1550,52.33,-120.57,Basalt / Picro-Basalt,Intraplate / Continental Crust (>25 km)
Meager,Canada,Canada and Western USA,Complex,-410,50.63,-123.5,Dacite,Subduction Zone / Continental Crust (>25 km)
Baker,United States,Canada and Western USA,Stratovolcano,1880,48.777,-121.81299999999999,Andesite / Basaltic Andesite,Subduction Zone / Continental Crust (>25 km)
Glacier Peak,United States,Canada and Western USA,Stratovolcano,1700,48.111999999999995,-121.113,Dacite,Subduction Zone / Continental Crust (>25 km)
Rainier,United States,Canada and Western USA,Stratovolcano,1894,46.853,-121.76,Andesite / Basaltic Andesite,Subduction Zone / Continental Crust (>25 km)
Adams,United States,Canada and Western USA,Stratovolcano,950,46.206,-121.49,Andesite / Basaltic Andesite,Subduction Zone / Continental Crust (>25 km)
St. Helens,United States,Canada and Western USA,Stratovolcano,2008,46.2,-122.18,Dacite,Subduction Zone / Continental Crust (>25 km)
Hood,United States,Canada and Western USA,Stratovolcano,1866,45.373999999999995,-121.695,Andesite / Basaltic Andesite,Subduction Zone / Continental Crust (>25 km)
Jefferson,United States,Canada and Western USA,Stratovolcano,950,44.674,-121.8,Andesite / Basaltic Andesite,Subduction Zone / Continental Crust (>25 km)
Blue Lake Crater,United States,Canada and Western USA,Maar,680,44.411,-121.774,Basalt / Picro-Basalt,Subduction Zone / Continental Crust (>25 km)
Sand Mountain Field,United States,Canada and Western USA,Pyroclastic cone,70,44.38,-121.93,Basalt / Picro-Basalt,Subduction Zone / Continental Crust (>25 km)
Belknap,United States,Canada and Western USA,Shield,480,44.285,-121.84100000000001,Andesite / Basaltic Andesite,Subduction Zone / Continental Crust (>25 km)
Three Sisters,United States,Canada and Western USA,Complex,440,44.133,-121.76700000000001,Andesite / Basaltic Andesite,Subduction Zone / Continental Crust (>25 km)
Newberry,United States,Canada and Western USA,Shield,690,43.722,-121.229,Andesite / Basaltic Andesite,Subduction Zone / Continental Crust (>25 km)
Shasta,United States,Canada and Western USA,Stratovolcano,1786,41.409,-122.193,Andesite / Basaltic Andesite,Subduction Zone / Continental Crust (>25 km)
Medicine Lake,United States,Canada and Western USA,Shield,1060,41.611000000000004,-121.554,Basalt / Picro-Basalt,Subduction Zone / Continental Crust (>25 km)
Lassen Volcanic Center,United States,Canada and Western USA,Stratovolcano,1917,40.492,-121.508,Andesite / Basaltic Andesite,Subduction Zone / Continental Crust (>25 km)
Mono Lake Volcanic Field,United States,Canada and Western USA,Pyroclastic cone,1790,38.0,-119.03,Dacite,Rift Zone / Continental Crust (>25 km)
Mono Craters,United States,Canada and Western USA,Lava dome,1350,37.88,-119.0,Rhyolite,Rift Zone / Continental Crust (>25 km)
Inyo Craters,United States,Canada and Western USA,Lava dome,1380,37.692,-119.02,Rhyolite,Rift Zone / Continental Crust (>25 km)
Mammoth Mountain,United States,Canada and Western USA,Lava dome,1260,37.631,-119.03200000000001,Trachyte / Trachydacite,Rift Zone / Continental Crust (>25 km)
Salton Buttes,United States,Canada and Western USA,Lava dome,210,33.196999999999996,-115.616,Rhyolite,Rift Zone / Continental Crust (>25 km)
Craters of the Moon,United States,Canada and Western USA,Pyroclastic cone,-130,43.42,-113.5,Basalt / Picro-Basalt,Rift Zone / Continental Crust (>25 km)
Wapi Lava Field,United States,Canada and Western USA,Shield,-300,42.88,-113.22,Basalt / Picro-Basalt,Rift Zone / Continental Crust (>25 km)
Markagunt Plateau,United States,Canada and Western USA,Volcanic field,1050,37.58,-112.67,Basalt / Picro-Basalt,Rift Zone / Continental Crust (>25 km)
Black Rock Desert,United States,Canada and Western USA,Volcanic field,1290,38.97,-112.5,Basalt / Picro-Basalt,Rift Zone / Continental Crust (>25 km)
Uinkaret Field,United States,Canada and Western USA,Volcanic field,1100,36.38,-113.13,Trachybasalt / Tephrite Basanite,Rift Zone / Continental Crust (>25 km)
San Francisco Volcanic Field,United States,Canada and Western USA,Pyroclastic cone,1075,35.347,-111.678,Basalt / Picro-Basalt,Rift Zone / Continental Crust (>25 km)
CoAxial Segment,Undersea Features,Hawaii and Pacific Ocean,Submarine,1993,46.52,-129.58,Basalt / Picro-Basalt,Rift Zone / Oceanic Crust (< 15 km)
Axial Seamount,Undersea Features,Hawaii and Pacific Ocean,Submarine,2015,45.95,-130.0,Basalt / Picro-Basalt,Rift Zone / Oceanic Crust (< 15 km)
Cleft Segment,Undersea Features,Hawaii and Pacific Ocean,Submarine,1986,44.83,-130.3,Basalt / Picro-Basalt,Rift Zone / Oceanic Crust (< 15 km)
North Gorda Ridge Segment,Undersea Features,Hawaii and Pacific Ocean,Submarine,1996,42.67,-126.78,Basalt / Picro-Basalt,Rift Zone / Oceanic Crust (< 15 km)
Loihi,United States,Hawaii and Pacific Ocean,Submarine,1996,18.92,-155.27,Basalt / Picro-Basalt,Intraplate / Oceanic Crust (< 15 km)
Kilauea,United States,Hawaii and Pacific Ocean,Shield,2016,19.421,-155.287,Basalt / Picro-Basalt,Intraplate / Oceanic Crust (< 15 km)
Mauna Loa,United States,Hawaii and Pacific Ocean,Shield,1984,19.475,-155.608,Basalt / Picro-Basalt,Intraplate / Oceanic Crust (< 15 km)
Hualalai,United States,Hawaii and Pacific Ocean,Shield,1801,19.692,-155.87,Basalt / Picro-Basalt,Intraplate / Oceanic Crust (< 15 km)
Haleakala,United States,Hawaii and Pacific Ocean,Shield,1750,20.708000000000002,-156.25,Basalt / Picro-Basalt,Intraplate / Oceanic Crust (< 15 km)
Teahitia,France,Hawaii and Pacific Ocean,Submarine,1985,-17.564,-148.821,Trachybasalt / Tephrite Basanite,Intraplate / Oceanic Crust (< 15 km)
Rocard,France,Hawaii and Pacific Ocean,Submarine,1972,-17.662,-148.586,Trachyte / Trachydacite,Intraplate / Oceanic Crust (< 15 km)
Moua Pihaa,France,Hawaii and Pacific Ocean,Submarine,1970,-18.325,-148.525,Trachybasalt / Tephrite Basanite,Intraplate / Oceanic Crust (< 15 km)
Adams Seamount,Undersea Features,Hawaii and Pacific Ocean,Submarine,-50,-25.37,-129.27,Basalt / Picro-Basalt,Intraplate / Oceanic Crust (< 15 km)
Macdonald,Undersea Features,Hawaii and Pacific Ocean,Submarine,1989,-28.98,-140.25,Basalt / Picro-Basalt,Intraplate / Oceanic Crust (< 15 km)
Northern EPR-Segment RO2,Undersea Features,Hawaii and Pacific Ocean,Submarine,-50,16.55,-105.32,Basalt / Picro-Basalt,Rift Zone / Oceanic Crust (< 15 km)
Northern EPR-Segment RO3,Undersea Features,Hawaii and Pacific Ocean,Submarine,-50,15.83,-105.43,Basalt / Picro-Basalt,Rift Zone / Oceanic Crust (< 15 km)
Unnamed,Undersea Features,Hawaii and Pacific Ocean,Submarine,2003,10.73,-103.58,Basalt / Picro-Basalt,Intraplate / Oceanic Crust (< 15 km)
Unnamed,Undersea Features,Hawaii and Pacific Ocean,Submarine,2006,9.83,-104.3,Basalt / Picro-Basalt,Rift Zone / Oceanic Crust (< 15 km)
Galapagos Rift,Undersea Features,Hawaii and Pacific Ocean,Submarine,1996,0.792,-86.15,Basalt / Picro-Basalt,Rift Zone / Oceanic Crust (< 15 km)
Unnamed,Undersea Features,Hawaii and Pacific Ocean,Submarine,1969,-8.27,-107.95,Basalt / Picro-Basalt,Rift Zone / Oceanic Crust (< 15 km)
Southern EPR-Segment K,Undersea Features,Hawaii and Pacific Ocean,Submarine,1990,-17.436,-113.206,Basalt / Picro-Basalt,Rift Zone / Oceanic Crust (< 15 km)
Southern EPR-Segment J,Undersea Features,Hawaii and Pacific Ocean,Submarine,1890,-18.175,-113.35,Basalt / Picro-Basalt,Rift Zone / Oceanic Crust (< 15 km)
Southern EPR-Segment I,Undersea Features,Hawaii and Pacific Ocean,Submarine,1915,-18.53,-113.42,Basalt / Picro-Basalt,Rift Zone / Oceanic Crust (< 15 km)
Barcena,Mexico,México and Central America,Pyroclastic cone,1953,19.3,-110.82,Trachyte / Trachydacite,Rift Zone / Oceanic Crust (< 15 km)
Socorro,Mexico,México and Central America,Shield,1994,18.78,-110.95,Trachyte / Trachydacite,Rift Zone / Oceanic Crust (< 15 km)
Ceboruco,Mexico,México and Central America,Stratovolcano,1875,21.125,-104.508,Andesite / Basaltic Andesite,Subduction Zone / Continental Crust (>25 km)
Colima,Mexico,México and Central America,Stratovolcano,2016,19.514,-103.62,Andesite / Basaltic Andesite,Subduction Zone / Continental Crust (>25 km)
Michoacan-Guanajuato,Mexico,México and Central America,Pyroclastic cone,1952,19.85,-101.75,Andesite / Basaltic Andesite,Subduction Zone / Continental Crust (>25 km)
Jocotitlan,Mexico,México and Central America,Stratovolcano,1270,19.73,-99.758,Dacite,Subduction Zone / Continental Crust (>25 km)
Chichinautzin,Mexico,México and Central America,Volcanic field,400,19.08,-99.13,Andesite / Basaltic Andesite,Subduction Zone / Continental Crust (>25 km)
Popocatepetl,Mexico,México and Central America,Stratovolcano,2016,19.023,-98.62200000000001,Andesite / Basaltic Andesite,Subduction Zone / Continental Crust (>25 km)
Cofre de Perote,Mexico,México and Central America,Shield,1150,19.492,-97.15,Andesite / Basaltic Andesite,Subduction Zone / Continental Crust (>25 km)
"Orizaba, Pico de",Mexico,México and Central America,Stratovolcano,1846,19.03,-97.27,Andesite / Basaltic Andesite,Subduction Zone / Continental Crust (>25 km)
San Martin,Mexico,México and Central America,Shield,1796,18.57,-95.2,Trachybasalt / Tephrite Basanite,Subduction Zone / Continental Crust (>25 km)
"Chichon, El",Mexico,México and Central America,Lava dome,1982,17.36,-93.228,Trachyandesite / Basaltic Trachyandesite,Subduction Zone / Continental Crust (>25 km)
Tacana,Mexico-Guatemala,México and Central America,Stratovolcano,1986,15.132,-92.109,Andesite / Basaltic Andesite,Subduction Zone / Continental Crust (>25 km)
Santa Maria,Guatemala,México and Central America,Stratovolcano,2016,14.755999999999998,-91.552,Dacite,Subduction Zone / Continental Crust (>25 km)
Almolonga,Guatemala,México and Central America,Stratovolcano,1818,14.797,-91.51899999999999,Dacite,Subduction Zone / Continental Crust (>25 km)
Atitlan,Guatemala,México and Central America,Stratovolcano,1853,14.583,-91.186,Andesite / Basaltic Andesite,Subduction Zone / Continental Crust (>25 km)
Acatenango,Guatemala,México and Central America,Stratovolcano,1972,14.501,-90.876,Andesite / Basaltic Andesite,Subduction Zone / Continental Crust (>25 km)
Fuego,Guatemala,México and Central America,Stratovolcano,2016,14.472999999999999,-90.88,Basalt / Picro-Basalt,Subduction Zone / Continental Crust (>25 km)
Pacaya,Guatemala,México and Central America,Complex,2016,14.380999999999998,-90.601,Basalt / Picro-Basalt,Subduction Zone / Continental Crust (>25 km)
Tecuamburro,Guatemala,México and Central America,Stratovolcano,-960,14.155999999999999,-90.40700000000001,Andesite / Basaltic Andesite,Subduction Zone / Continental Crust (>25 km)
Santa Ana,El Salvador,México and Central America,Stratovolcano,2005,13.853,-89.63,Andesite / Basaltic Andesite,Subduction Zone / Continental Crust (>25 km)
Izalco,El Salvador,México and Central America,Stratovolcano,1966,13.812999999999999,-89.633,Andesite / Basaltic Andesite,Subduction Zone / Continental Crust (>25 km)
San Salvador,El Salvador,México and Central America,Stratovolcano,1917,13.734000000000002,-89.294,Andesite / Basaltic Andesite,Subduction Zone / Continental Crust (>25 km)
Ilopango,El Salvador,México and Central America,Caldera,1880,13.672,-89.053,Dacite,Subduction Zone / Continental Crust (>25 km)
San Miguel,El Salvador,México and Central America,Stratovolcano,2016,13.434000000000001,-88.26899999999999,Andesite / Basaltic Andesite,Subduction Zone / Continental Crust (>25 km)
Cosiguina,Nicaragua,México and Central America,Stratovolcano,1859,12.98,-87.57,Andesite / Basaltic Andesite,Subduction Zone / Continental Crust (>25 km)
San Cristobal,Nicaragua,México and Central America,Stratovolcano,2016,12.702,-87.00399999999999,Basalt / Picro-Basalt,Subduction Zone / Continental Crust (>25 km)
Telica,Nicaragua,México and Central America,Stratovolcano,2016,12.602,-86.845,Basalt / Picro-Basalt,Subduction Zone / Continental Crust (>25 km)
"Negro, Cerro",Nicaragua,México and Central America,Pyroclastic cone,1999,12.505999999999998,-86.70200000000001,Basalt / Picro-Basalt,Subduction Zone / Continental Crust (>25 km)
"Pilas, Las",Nicaragua,México and Central America,Complex,1954,12.495,-86.68799999999999,Andesite / Basaltic Andesite,Subduction Zone / Continental Crust (>25 km)
Momotombo,Nicaragua,México and Central America,Stratovolcano,2016,12.422,-86.54,Basalt / Picro-Basalt,Subduction Zone / Continental Crust (>25 km)
Apoyeque,Nicaragua,México and Central America,Pyroclastic shield,-50,12.242,-86.34200000000001,Dacite,Subduction Zone / Continental Crust (>25 km)
Nejapa-Miraflores,Nicaragua,México and Central America,Fissure vent,1060,12.12,-86.32,Basalt / Picro-Basalt,Subduction Zone / Continental Crust (>25 km)
Masaya,Nicaragua,México and Central America,Caldera,2016,11.984000000000002,-86.161,Basalt / Picro-Basalt,Subduction Zone / Continental Crust (>25 km)
Concepcion,Nicaragua,México and Central America,Stratovolcano,2011,11.538,-85.62200000000001,Andesite / Basaltic Andesite,Subduction Zone / Continental Crust (>25 km)
Rincon de la Vieja,Costa Rica,México and Central America,Complex,2014,10.83,-85.324,Andesite / Basaltic Andesite,Subduction Zone / Continental Crust (>25 km)
Miravalles,Costa Rica,México and Central America,Stratovolcano,1946,10.748,-85.15299999999999,Andesite / Basaltic Andesite,Subduction Zone / Continental Crust (>25 km)
Arenal,Costa Rica,México and Central America,Stratovolcano,2010,10.463,-84.70299999999999,Andesite / Basaltic Andesite,Subduction Zone / Continental Crust (>25 km)
Poas,Costa Rica,México and Central America,Stratovolcano,2016,10.2,-84.23299999999999,Andesite / Basaltic Andesite,Subduction Zone / Continental Crust (>25 km)
Irazu,Costa Rica,México and Central America,Stratovolcano,1994,9.979,-83.852,Andesite / Basaltic Andesite,Subduction Zone / Continental Crust (>25 km)
Turrialba,Costa Rica,México and Central America,Stratovolcano,2016,10.025,-83.76700000000001,Andesite / Basaltic Andesite,Subduction Zone / Continental Crust (>25 km)
Baru,Panama,México and Central America,Stratovolcano,1550,8.808,-82.54299999999999,Andesite / Basaltic Andesite,Subduction Zone / Continental Crust (>25 km)
"Bravo, Cerro",Colombia,South America,Stratovolcano,1720,5.091,-75.293,Dacite,Subduction Zone / Continental Crust (>25 km)
"Ruiz, Nevado del",Colombia,South America,Stratovolcano,2016,4.8919999999999995,-75.324,Andesite / Basaltic Andesite,Subduction Zone / Continental Crust (>25 km)
Santa Isabel,Colombia,South America,Shield,-850,4.8180000000000005,-75.365,Andesite / Basaltic Andesite,Subduction Zone / Continental Crust (>25 km)
"Tolima, Nevado del",Colombia,South America,Stratovolcano,1943,4.658,-75.33,Andesite / Basaltic Andesite,Subduction Zone / Continental Crust (>25 km)
Machin,Colombia,South America,Stratovolcano,1180,4.487,-75.389,Dacite,Subduction Zone / Continental Crust (>25 km)
"Huila, Nevado del",Colombia,South America,Stratovolcano,2012,2.93,-76.03,Andesite / Basaltic Andesite,Subduction Zone / Continental Crust (>25 km)
Purace,Colombia,South America,Stratovolcano,1977,2.32,-76.4,Andesite / Basaltic Andesite,Subduction Zone / Continental Crust (>25 km)
Dona Juana,Colombia,South America,Stratovolcano,1906,1.5,-76.936,Andesite / Basaltic Andesite,Subduction Zone / Continental Crust (>25 km)
Galeras,Colombia,South America,Complex,2014,1.22,-77.37,Andesite / Basaltic Andesite,Subduction Zone / Continental Crust (>25 km)
Azufral,Colombia,South America,Stratovolcano,-930,1.08,-77.68,Dacite,Subduction Zone / Continental Crust (>25 km)
Cumbal,Colombia,South America,Stratovolcano,1926,0.95,-77.87,Andesite / Basaltic Andesite,Subduction Zone / Continental Crust (>25 km)
Chiles-Cerro Negro,Colombia-Ecuador,South America,Stratovolcano,1936,0.8170000000000001,-77.938,Dacite,Subduction Zone / Continental Crust (>25 km)
Cuicocha,Ecuador,South America,Caldera,650,0.308,-78.36399999999999,Dacite,Subduction Zone / Continental Crust (>25 km)
Cayambe,Ecuador,South America,Compound,1786,0.028999999999999998,-77.986,Andesite / Basaltic Andesite,Subduction Zone / Continental Crust (>25 km)
Reventador,Ecuador,South America,Stratovolcano,2016,-0.077,-77.656,Andesite / Basaltic Andesite,Subduction Zone / Continental Crust (>25 km)
Pululagua,Ecuador,South America,Caldera,290,0.038,-78.46300000000001,Dacite,Subduction Zone / Continental Crust (>25 km)
Guagua Pichincha,Ecuador,South America,Stratovolcano,2002,-0.171,-78.598,Andesite / Basaltic Andesite,Subduction Zone / Continental Crust (>25 km)
Atacazo,Ecuador,South America,Stratovolcano,-320,-0.353,-78.617,Andesite / Basaltic Andesite,Subduction Zone / Continental Crust (>25 km)
Chacana,Ecuador,South America,Caldera,1773,-0.375,-78.25,Rhyolite,Subduction Zone / Continental Crust (>25 km)
Antisana,Ecuador,South America,Stratovolcano,1802,-0.48100000000000004,-78.141,Andesite / Basaltic Andesite,Subduction Zone / Continental Crust (>25 km)
Sumaco,Ecuador,South America,Stratovolcano,1895,-0.5379999999999999,-77.626,Trachybasalt / Tephrite Basanite,Subduction Zone / Continental Crust (>25 km)
Cotopaxi,Ecuador,South America,Stratovolcano,2016,-0.677,-78.436,Andesite / Basaltic Andesite,Subduction Zone / Continental Crust (>25 km)
Quilotoa,Ecuador,South America,Caldera,1280,-0.85,-78.9,Dacite,Subduction Zone / Continental Crust (>25 km)
Chimborazo,Ecuador,South America,Stratovolcano,550,-1.464,-78.815,Andesite / Basaltic Andesite,Subduction Zone / Continental Crust (>25 km)
Tungurahua,Ecuador,South America,Stratovolcano,2016,-1.4669999999999999,-78.442,Andesite / Basaltic Andesite,Subduction Zone / Continental Crust (>25 km)
Sangay,Ecuador,South America,Stratovolcano,2016,-2.005,-78.34100000000001,Andesite / Basaltic Andesite,Subduction Zone / Continental Crust (>25 km)
Fernandina,Ecuador,South America,Shield,2009,-0.37,-91.55,Basalt / Picro-Basalt,Rift Zone / Oceanic Crust (< 15 km)
Ecuador,Ecuador,South America,Shield,1150,-0.02,-91.546,Basalt / Picro-Basalt,Rift Zone / Oceanic Crust (< 15 km)
Wolf,Ecuador,South America,Shield,2015,0.02,-91.35,Basalt / Picro-Basalt,Rift Zone / Oceanic Crust (< 15 km)
Darwin,Ecuador,South America,Shield,1813,-0.18,-91.28,Basalt / Picro-Basalt,Rift Zone / Oceanic Crust (< 15 km)
Alcedo,Ecuador,South America,Shield,1993,-0.43,-91.12,Basalt / Picro-Basalt,Rift Zone / Oceanic Crust (< 15 km)
"Negra, Sierra",Ecuador,South America,Shield,2005,-0.83,-91.17,Basalt / Picro-Basalt,Rift Zone / Oceanic Crust (< 15 km)
"Azul, Cerro",Ecuador,South America,Shield,2008,-0.92,-91.40799999999999,Basalt / Picro-Basalt,Rift Zone / Oceanic Crust (< 15 km)
Pinta,Ecuador,South America,Shield,1928,0.58,-90.75,Basalt / Picro-Basalt,Rift Zone / Oceanic Crust (< 15 km)
Marchena,Ecuador,South America,Shield,1991,0.33,-90.47,Basalt / Picro-Basalt,Rift Zone / Oceanic Crust (< 15 km)
Santiago,Ecuador,South America,Shield,1906,-0.22,-90.77,Basalt / Picro-Basalt,Rift Zone / Oceanic Crust (< 15 km)
Andahua-Orcopampa,Peru,South America,Pyroclastic cone,1490,-15.42,-72.33,Trachyandesite / Basaltic Trachyandesite,Subduction Zone / Continental Crust (>25 km)
Huambo,Peru,South America,Volcanic field,-700,-15.83,-72.13,Trachyandesite / Basaltic Trachyandesite,Subduction Zone / Continental Crust (>25 km)
Sabancaya,Peru,South America,Stratovolcano,2016,-15.78,-71.85,Andesite / Basaltic Andesite,Subduction Zone / Continental Crust (>25 km)
"Misti, El",Peru,South America,Stratovolcano,1985,-16.294,-71.40899999999999,Andesite / Basaltic Andesite,Subduction Zone / Continental Crust (>25 km)
Ubinas,Peru,South America,Stratovolcano,2016,-16.355,-70.903,Andesite / Basaltic Andesite,Subduction Zone / Continental Crust (>25 km)
Huaynaputina,Peru,South America,Stratovolcano,1600,-16.608,-70.85,Dacite,Subduction Zone / Continental Crust (>25 km)
Ticsani,Peru,South America,Lava dome,1800,-16.755,-70.595,Dacite,Subduction Zone / Continental Crust (>25 km)
Tutupaca,Peru,South America,Stratovolcano,1802,-17.026,-70.372,Andesite / Basaltic Andesite,Subduction Zone / Continental Crust (>25 km)
Taapaca,Chile,South America,Complex,-320,-18.1,-69.5,Dacite,Subduction Zone / Continental Crust (>25 km)
Parinacota,Chile-Bolivia,South America,Stratovolcano,290,-18.166,-69.142,Andesite / Basaltic Andesite,Subduction Zone / Continental Crust (>25 km)
Guallatiri,Chile,South America,Stratovolcano,1960,-18.42,-69.092,Andesite / Basaltic Andesite,Subduction Zone / Continental Crust (>25 km)
Isluga,Chile,South America,Stratovolcano,1913,-19.15,-68.83,Andesite / Basaltic Andesite,Subduction Zone / Continental Crust (>25 km)
Irruputuncu,Chile-Bolivia,South America,Stratovolcano,1995,-20.73,-68.55,Andesite / Basaltic Andesite,Subduction Zone / Continental Crust (>25 km)
Olca-Paruma,Chile-Bolivia,South America,Stratovolcano,1867,-20.939,-68.413,Andesite / Basaltic Andesite,Subduction Zone / Continental Crust (>25 km)
San Pedro-San Pablo,Chile,South America,Stratovolcano,1960,-21.888,-68.391,Andesite / Basaltic Andesite,Subduction Zone / Continental Crust (>25 km)
Putana,Chile,South America,Stratovolcano,1810,-22.557,-67.85300000000001,Dacite,Subduction Zone / Continental Crust (>25 km)
Lascar,Chile,South America,Stratovolcano,2016,-23.37,-67.73,Andesite / Basaltic Andesite,Subduction Zone / Continental Crust (>25 km)
Llullaillaco,Chile-Argentina,South America,Stratovolcano,1877,-24.72,-68.53,Dacite,Subduction Zone / Continental Crust (>25 km)
"Ojos del Salado, Nevados",Chile-Argentina,South America,Stratovolcano,750,-27.109,-68.541,Dacite,Subduction Zone / Continental Crust (>25 km)
Tupungatito,Chile-Argentina,South America,Stratovolcano,1987,-33.425,-69.797,Andesite / Basaltic Andesite,Subduction Zone / Continental Crust (>25 km)
San Jose,Chile-Argentina,South America,Stratovolcano,1960,-33.789,-69.895,Andesite / Basaltic Andesite,Subduction Zone / Continental Crust (>25 km)
Maipo,Chile-Argentina,South America,Caldera,1912,-34.164,-69.832,Trachyandesite / Basaltic Trachyandesite,Subduction Zone / Continental Crust (>25 km)
Tinguiririca,Chile,South America,Stratovolcano,1917,-34.814,-70.352,Andesite / Basaltic Andesite,Subduction Zone / Continental Crust (>25 km)
Planchon-Peteroa,Chile,South America,Stratovolcano,2011,-35.223,-70.568,Andesite / Basaltic Andesite,Subduction Zone / Continental Crust (>25 km)
Descabezado Grande,Chile,South America,Stratovolcano,1933,-35.58,-70.75,Andesite / Basaltic Andesite,Subduction Zone / Continental Crust (>25 km)
"Azul, Cerro",Chile,South America,Stratovolcano,1967,-35.653,-70.76100000000001,Dacite,Subduction Zone / Continental Crust (>25 km)
"Maule, Laguna del",Chile,South America,Caldera,-50,-36.058,-70.492,Andesite / Basaltic Andesite,Subduction Zone / Continental Crust (>25 km)
"Chillan, Nevados de",Chile,South America,Stratovolcano,2016,-36.863,-71.377,Andesite / Basaltic Andesite,Subduction Zone / Continental Crust (>25 km)
Tromen,Argentina,South America,Stratovolcano,1822,-37.144,-70.033,Andesite / Basaltic Andesite,Subduction Zone / Continental Crust (>25 km)
Antuco,Chile,South America,Stratovolcano,1869,-37.406,-71.34899999999999,Basalt / Picro-Basalt,Subduction Zone / Continental Crust (>25 km)
Copahue,Chile-Argentina,South America,Stratovolcano,2016,-37.856,-71.183,Trachybasalt / Tephrite Basanite,Subduction Zone / Continental Crust (>25 km)
Callaqui,Chile,South America,Stratovolcano,1980,-37.92,-71.45,Andesite / Basaltic Andesite,Subduction Zone / Continental Crust (>25 km)
Lonquimay,Chile,South America,Stratovolcano,1990,-38.379,-71.586,Andesite / Basaltic Andesite,Subduction Zone / Continental Crust (>25 km)
Llaima,Chile,South America,Stratovolcano,2009,-38.692,-71.729,Basalt / Picro-Basalt,Subduction Zone / Continental Crust (>25 km)
Sollipulli,Chile,South America,Caldera,1240,-38.97,-71.52,Andesite / Basaltic Andesite,Subduction Zone / Continental Crust (>25 km)
Villarrica,Chile,South America,Stratovolcano,2016,-39.42,-71.93,Basalt / Picro-Basalt,Subduction Zone / Continental Crust (>25 km)
Quetrupillan,Chile,South America,Stratovolcano,1872,-39.5,-71.7,Andesite / Basaltic Andesite,Subduction Zone / Continental Crust (>25 km)
Lanin,Chile-Argentina,South America,Stratovolcano,560,-39.637,-71.502,Trachyandesite / Basaltic Trachyandesite,Subduction Zone / Continental Crust (>25 km)
Huanquihue Group,Argentina,South America,Stratovolcano,1750,-39.887,-71.58,Basalt / Picro-Basalt,Subduction Zone / Continental Crust (>25 km)
Mocho-Choshuenco,Chile,South America,Stratovolcano,1937,-39.927,-72.027,Andesite / Basaltic Andesite,Subduction Zone / Continental Crust (>25 km)
Carrán-Los Venados,Chile,South America,Pyroclastic cone,1979,-40.35,-72.07,Basalt / Picro-Basalt,Subduction Zone / Continental Crust (>25 km)
Puyehue-Cordon Caulle,Chile,South America,Stratovolcano,2012,-40.59,-72.117,Andesite / Basaltic Andesite,Subduction Zone / Continental Crust (>25 km)
Antillanca Group,Chile,South America,Stratovolcano,-230,-40.771,-72.153,Basalt / Picro-Basalt,Subduction Zone / Continental Crust (>25 km)
Puntiagudo-Cordon Cenizos,Chile,South America,Stratovolcano,1850,-40.968999999999994,-72.264,Andesite / Basaltic Andesite,Subduction Zone / Continental Crust (>25 km)
Osorno,Chile,South America,Stratovolcano,1869,-41.105,-72.49600000000001,Basalt / Picro-Basalt,Subduction Zone / Continental Crust (>25 km)
Cayutue-La Vigueria,Chile,South America,Pyroclastic cone,-190,-41.25,-72.27,Basalt / Picro-Basalt,Subduction Zone / Continental Crust (>25 km)
Calbuco,Chile,South America,Stratovolcano,2015,-41.33,-72.618,Andesite / Basaltic Andesite,Subduction Zone / Continental Crust (>25 km)
Yate,Chile,South America,Stratovolcano,1090,-41.755,-72.396,Andesite / Basaltic Andesite,Subduction Zone / Continental Crust (>25 km)
Hornopiren,Chile,South America,Stratovolcano,340,-41.873999999999995,-72.431,Andesite / Basaltic Andesite,Subduction Zone / Continental Crust (>25 km)
Apagado,Chile,South America,Pyroclastic cone,-590,-41.88,-72.58,Basalt / Picro-Basalt,Subduction Zone / Continental Crust (>25 km)
Huequi,Chile,South America,Lava dome,1920,-42.376999999999995,-72.578,Andesite / Basaltic Andesite,Subduction Zone / Continental Crust (>25 km)
Michinmahuida,Chile,South America,Stratovolcano,1835,-42.799,-72.445,Andesite / Basaltic Andesite,Subduction Zone / Continental Crust (>25 km)
Chaiten,Chile,South America,Caldera,2011,-42.833,-72.646,Rhyolite,Subduction Zone / Continental Crust (>25 km)
Melimoyu,Chile,South America,Stratovolcano,200,-44.08,-72.88,Andesite / Basaltic Andesite,Subduction Zone / Continental Crust (>25 km)
Mentolat,Chile,South America,Stratovolcano,1710,-44.7,-73.08,Andesite / Basaltic Andesite,Subduction Zone / Continental Crust (>25 km)
Maca,Chile,South America,Stratovolcano,1560,-45.1,-73.17,Basalt / Picro-Basalt,Subduction Zone / Continental Crust (>25 km)
"Hudson, Cerro",Chile,South America,Stratovolcano,2011,-45.9,-72.97,Basalt / Picro-Basalt,Subduction Zone / Continental Crust (>25 km)
Arenales,Chile,South America,Stratovolcano,1979,-47.2,-73.48,No Data,Subduction Zone / Continental Crust (>25 km)
Lautaro,Chile,South America,Stratovolcano,1979,-49.02,-73.55,Dacite,Subduction Zone / Continental Crust (>25 km)
Viedma,Argentina,South America,Subglacial,1988,-49.358000000000004,-73.28,Dacite,Subduction Zone / Continental Crust (>25 km)
Reclus,Chile,South America,Pyroclastic cone,1908,-50.964,-73.585,Dacite,Subduction Zone / Continental Crust (>25 km)
"Burney, Monte",Chile,South America,Stratovolcano,1910,-52.33,-73.4,Andesite / Basaltic Andesite,Subduction Zone / Continental Crust (>25 km)
Fueguino,Chile,South America,Lava dome,1820,-54.95,-70.25,Andesite / Basaltic Andesite,Subduction Zone / Continental Crust (>25 km)
Saba,Netherlands,West Indies,Stratovolcano,1640,17.63,-63.23,Andesite / Basaltic Andesite,Subduction Zone / Oceanic Crust (< 15 km)
"Quill, The",Netherlands,West Indies,Stratovolcano,250,17.477999999999998,-62.96,Andesite / Basaltic Andesite,Subduction Zone / Oceanic Crust (< 15 km)
Liamuiga,Saint Kitts and Nevis,West Indies,Stratovolcano,160,17.37,-62.8,Andesite / Basaltic Andesite,Subduction Zone / Oceanic Crust (< 15 km)
Soufrière Hills,United Kingdom,West Indies,Stratovolcano,2013,16.72,-62.18,Andesite / Basaltic Andesite,Subduction Zone / Oceanic Crust (< 15 km)
Soufriere Guadeloupe,France,West Indies,Stratovolcano,1977,16.044,-61.663999999999994,Andesite / Basaltic Andesite,Subduction Zone / Oceanic Crust (< 15 km)
"Trois Pitons, Morne",Dominica,West Indies,Complex,920,15.37,-61.33,Andesite / Basaltic Andesite,Subduction Zone / Oceanic Crust (< 15 km)
"Watt, Morne",Dominica,West Indies,Stratovolcano,1997,15.307,-61.305,Andesite / Basaltic Andesite,Subduction Zone / Oceanic Crust (< 15 km)
"Plat Pays, Morne",Dominica,West Indies,Stratovolcano,1270,15.255,-61.341,Dacite,Subduction Zone / Oceanic Crust (< 15 km)
Pelee,France,West Indies,Stratovolcano,1932,14.809000000000001,-61.165,Andesite / Basaltic Andesite,Subduction Zone / Oceanic Crust (< 15 km)
Qualibou,Saint Lucia,West Indies,Caldera,1766,13.83,-61.05,Andesite / Basaltic Andesite,Subduction Zone / Oceanic Crust (< 15 km)
Soufrière St. Vincent,Saint Vincent and the Grenadines,West Indies,Stratovolcano,1979,13.33,-61.18,Andesite / Basaltic Andesite,Subduction Zone / Oceanic Crust (< 15 km)
Kick 'em Jenny,Grenada,West Indies,Submarine,2015,12.3,-61.64,Basalt / Picro-Basalt,Subduction Zone / Oceanic Crust (< 15 km)
Snaefellsjokull,Iceland,Iceland and Arctic Ocean,Stratovolcano,200,64.8,-23.783,No Data,Rift Zone / Oceanic Crust (< 15 km)
Ljosufjoll,Iceland,Iceland and Arctic Ocean,Fissure vent,960,64.9,-22.483,Basalt / Picro-Basalt,Rift Zone / Oceanic Crust (< 15 km)
Reykjanes,Iceland,Iceland and Arctic Ocean,Crater rows,1926,63.85,-22.566,Basalt / Picro-Basalt,Rift Zone / Oceanic Crust (< 15 km)
Krysuvik,Iceland,Iceland and Arctic Ocean,Crater rows,1340,63.883,-22.083000000000002,Basalt / Picro-Basalt,Rift Zone / Oceanic Crust (< 15 km)
Brennisteinsfjoll,Iceland,Iceland and Arctic Ocean,Crater rows,1341,63.933,-21.783,Basalt / Picro-Basalt,Rift Zone / Oceanic Crust (< 15 km)
Hengill,Iceland,Iceland and Arctic Ocean,Crater rows,150,64.083,-21.416,Basalt / Picro-Basalt,Rift Zone / Oceanic Crust (< 15 km)
Langjokull,Iceland,Iceland and Arctic Ocean,Subglacial,950,64.85,-19.7,Basalt / Picro-Basalt,Rift Zone / Oceanic Crust (< 15 km)
Vestmannaeyjar,Iceland,Iceland and Arctic Ocean,Submarine,1973,63.416000000000004,-20.266,Basalt / Picro-Basalt,Rift Zone / Oceanic Crust (< 15 km)
Eyjafjallajokull,Iceland,Iceland and Arctic Ocean,Stratovolcano,2010,63.633,-19.633,Basalt / Picro-Basalt,Rift Zone / Oceanic Crust (< 15 km)
Katla,Iceland,Iceland and Arctic Ocean,Subglacial,1918,63.633,-19.083,Basalt / Picro-Basalt,Rift Zone / Oceanic Crust (< 15 km)
Torfajokull,Iceland,Iceland and Arctic Ocean,Stratovolcano,1477,63.8,-19.133,Rhyolite,Rift Zone / Oceanic Crust (< 15 km)
Hekla,Iceland,Iceland and Arctic Ocean,Stratovolcano,2000,63.983000000000004,-19.666,Andesite / Basaltic Andesite,Rift Zone / Oceanic Crust (< 15 km)
Grimsvotn,Iceland,Iceland and Arctic Ocean,Caldera,2011,64.416,-17.316,Basalt / Picro-Basalt,Rift Zone / Oceanic Crust (< 15 km)
Bardarbunga,Iceland,Iceland and Arctic Ocean,Stratovolcano,2015,64.633,-17.516,Basalt / Picro-Basalt,Rift Zone / Oceanic Crust (< 15 km)
Kverkfjoll,Iceland,Iceland and Arctic Ocean,Stratovolcano,1968,64.653,-16.647000000000002,Basalt / Picro-Basalt,Rift Zone / Oceanic Crust (< 15 km)
Askja,Iceland,Iceland and Arctic Ocean,Stratovolcano,1961,65.033,-16.783,Basalt / Picro-Basalt,Rift Zone / Oceanic Crust (< 15 km)
Krafla,Iceland,Iceland and Arctic Ocean,Caldera,1984,65.75,-16.25,Basalt / Picro-Basalt,Rift Zone / Oceanic Crust (< 15 km)
Theistareykir,Iceland,Iceland and Arctic Ocean,Shield,-900,65.833,-17.166,Basalt / Picro-Basalt,Rift Zone / Oceanic Crust (< 15 km)
Tjornes Fracture Zone,Iceland,Iceland and Arctic Ocean,Submarine,1868,66.3,-17.1,Basalt / Picro-Basalt,Rift Zone / Oceanic Crust (< 15 km)
Oraefajokull,Iceland,Iceland and Arctic Ocean,Stratovolcano,1728,64.05,-16.633,Basalt / Picro-Basalt,Rift Zone / Oceanic Crust (< 15 km)
Kolbeinsey Ridge,Iceland,Iceland and Arctic Ocean,Submarine,1755,66.67,-18.5,Basalt / Picro-Basalt,Rift Zone / Oceanic Crust (< 15 km)
Jan Mayen,Norway,Iceland and Arctic Ocean,Stratovolcano,1985,71.087,-8.146,Basalt / Picro-Basalt,Rift Zone / Oceanic Crust (< 15 km)
East Gakkel Ridge at 85°E,Undersea Features,Iceland and Arctic Ocean,Submarine,1999,85.60799999999999,85.25,No Data,Rift Zone / Oceanic Crust (< 15 km)
Pico Fracture Zone,Undersea Features,Atlantic Ocean,Submarine,1865,38.75,-38.08,No Data,Intraplate / Oceanic Crust (< 15 km)
Flores,Portugal,Atlantic Ocean,Stratovolcano,-950,39.461999999999996,-31.215999999999998,Basalt / Picro-Basalt,Intraplate / Continental Crust (>25 km)
Fayal,Portugal,Atlantic Ocean,Stratovolcano,1958,38.6,-28.73,Andesite / Basaltic Andesite,Rift Zone / Oceanic Crust (< 15 km)
Pico,Portugal,Atlantic Ocean,Stratovolcano,1720,38.47,-28.4,Basalt / Picro-Basalt,Rift Zone / Oceanic Crust (< 15 km)
San Jorge,Portugal,Atlantic Ocean,Fissure vent,1907,38.65,-28.08,Basalt / Picro-Basalt,Rift Zone / Oceanic Crust (< 15 km)
Terceira,Portugal,Atlantic Ocean,Stratovolcano,2000,38.73,-27.32,Basalt / Picro-Basalt,Rift Zone / Oceanic Crust (< 15 km)
Don Joao de Castro Bank,Portugal,Atlantic Ocean,Submarine,1720,38.23,-26.63,Basalt / Picro-Basalt,Rift Zone / Oceanic Crust (< 15 km)
Sete Cidades,Portugal,Atlantic Ocean,Stratovolcano,1880,37.87,-25.78,Trachyte / Trachydacite,Rift Zone / Oceanic Crust (< 15 km)
Picos Volcanic System,Portugal,Atlantic Ocean,Pyroclastic cone,1652,37.78,-25.67,Trachybasalt / Tephrite Basanite,Rift Zone / Oceanic Crust (< 15 km)
Agua de Pau,Portugal,Atlantic Ocean,Stratovolcano,1564,37.77,-25.47,Trachyte / Trachydacite,Rift Zone / Oceanic Crust (< 15 km)
Furnas,Portugal,Atlantic Ocean,Stratovolcano,1630,37.77,-25.32,Trachyte / Trachydacite,Rift Zone / Oceanic Crust (< 15 km)
Monaco Bank,Portugal,Atlantic Ocean,Submarine,1911,37.6,-25.88,No Data,Rift Zone / Oceanic Crust (< 15 km)
La Palma,Spain,Atlantic Ocean,Stratovolcano,1971,28.57,-17.83,Trachybasalt / Tephrite Basanite,Intraplate / Oceanic Crust (< 15 km)
Hierro,Spain,Atlantic Ocean,Shield,2012,27.73,-18.03,Trachybasalt / Tephrite Basanite,Intraplate / Oceanic Crust (< 15 km)
Tenerife,Spain,Atlantic Ocean,Stratovolcano,1909,28.271,-16.641,Phonolite,Intraplate / Oceanic Crust (< 15 km)
Gran Canaria,Spain,Atlantic Ocean,Fissure vent,40,28.0,-15.58,Trachybasalt / Tephrite Basanite,Intraplate / Intermediate Crust (15-25 km)
Lanzarote,Spain,Atlantic Ocean,Fissure vent,1824,29.03,-13.63,Basalt / Picro-Basalt,Intraplate / Intermediate Crust (15-25 km)
Fogo,Cape Verde,Atlantic Ocean,Stratovolcano,2015,14.95,-24.35,Foidite,Intraplate / Intermediate Crust (15-25 km)
Unnamed,Undersea Features,Atlantic Ocean,Submarine,2002,-32.958,-5.22,No Data,Intraplate / Oceanic Crust (< 15 km)
Tristan da Cunha,United Kingdom,Atlantic Ocean,Shield,1962,-37.092,-12.28,Trachybasalt / Tephrite Basanite,Rift Zone / Oceanic Crust (< 15 km)
Nightingale Island,United Kingdom,Atlantic Ocean,Stratovolcano,2004,-37.42,-12.48,Trachyte / Trachydacite,Rift Zone / Oceanic Crust (< 15 km)
Bouvet,Norway,Atlantic Ocean,Shield,-50,-54.408,3.3510000000000004,Basalt / Picro-Basalt,Rift Zone / Oceanic Crust (< 15 km)
Buckle Island,Antarctica,Antarctica,Stratovolcano,1899,-66.78,163.25,Trachybasalt / Tephrite Basanite,Rift Zone / Oceanic Crust (< 15 km)
Melbourne,Antarctica,Antarctica,Stratovolcano,1892,-74.35,164.7,Trachyte / Trachydacite,Intraplate / Continental Crust (>25 km)
Erebus,Antarctica,Antarctica,Stratovolcano,2016,-77.53,167.17,Phonolite,Intraplate / Continental Crust (>25 km)
Hudson Mountains,Antarctica,Antarctica,Stratovolcano,-210,-74.33,-99.42,Basalt / Picro-Basalt,Intraplate / Continental Crust (>25 km)
Deception Island,Antarctica,Antarctica,Caldera,1970,-63.001000000000005,-60.652,Basalt / Picro-Basalt,Intraplate / Continental Crust (>25 km)
Penguin Island,Antarctica,Antarctica,Stratovolcano,1905,-62.1,-57.93,Basalt / Picro-Basalt,Intraplate / Continental Crust (>25 km)
Southern Thule,United Kingdom,Antarctica,Stratovolcano,1975,-59.442,-27.225,Andesite / Basaltic Andesite,Subduction Zone / Oceanic Crust (< 15 km)
Bristol Island,United Kingdom,Antarctica,Stratovolcano,2016,-59.016999999999996,-26.533,Basalt / Picro-Basalt,Subduction Zone / Oceanic Crust (< 15 km)
Montagu Island,United Kingdom,Antarctica,Shield,2007,-58.445,-26.374000000000002,Basalt / Picro-Basalt,Subduction Zone / Oceanic Crust (< 15 km)
Saunders,United Kingdom,Antarctica,Stratovolcano,2015,-57.8,-26.483,Basalt / Picro-Basalt,Subduction Zone / Oceanic Crust (< 15 km)
Candlemas Island,United Kingdom,Antarctica,Stratovolcano,1911,-57.08,-26.67,Basalt / Picro-Basalt,Subduction Zone / Oceanic Crust (< 15 km)
Zavodovski,United Kingdom,Antarctica,Stratovolcano,2016,-56.3,-27.57,Basalt / Picro-Basalt,Subduction Zone / Oceanic Crust (< 15 km)
Protector Seamounts,United Kingdom,Antarctica,Submarine,1962,-55.912,-28.166999999999998,Rhyolite,Subduction Zone / Oceanic Crust (< 15 km)
